"place_id","name","formatted_address","lon","lat","type","healthy"
"ChIJDVewbVnwUogRLkxScMpwjqw","G OUTLET TOBACCO & VAPE & CBD & Delta 8 & Kratom","100 E Murphy St, Madison, NC 27025, United States",-79.959423,36.3873519,"convenience","no"
"ChIJuwMgsLGZU4gRBo8zNs0hjII","ALDI","101 N Talbert Blvd, Lexington, NC 27292, United States",-80.2450839,35.815311,"main","yes"
"ChIJs1kStPUOU4gRPKRiG_kgfl8","Triangle Grocery","1001 Hickory Chapel Rd # A, High Point, NC 27260, United States",-79.966597,35.9545622,"convenience","no"
"ChIJfX7vMwhMU4gRF0u5SCcu_UQ","Country Store","1004 S Chatham Ave, Siler City, NC 27344, United States",-79.4565227,35.7116757,"convenience","no"
"ChIJ5ZPLJcQOU4gRw7H_thLInNc","Family Mart","1006 Leonard Ave, High Point, NC 27260, United States",-79.9940529,35.9588037,"convenience","no"
"ChIJx-aiZ3PzUYgRcB3hNuAo5gA","Horton's Supermarket","1009 S Main St, Galax, VA 24333, United States",-80.9195816,36.6444395,"main","yes"
"ChIJq6pWSkeYU4gRJHVN-hDL9Ms","Sn Food Mart 2 Inc","1009 Winston Rd, Lexington, NC 27295, United States",-80.2534985,35.8394871,"convenience","no"
"ChIJ84zc18UKU4gRLYeJA9MlMmM","ALDI","1033 Randolph St Suite 1A, Thomasville, NC 27360, United States",-80.0699718,35.863987,"main","yes"
"ChIJp1ZkijTzU4gRCeun59zyof4","ALDI","115 Avalon Dr, Salisbury, NC 28146, United States",-80.4573829,35.6493539,"main","yes"
"ChIJPcPGhXCuU4gR6Ib_DsjLXB8","Gleen Deli & Grocery","101-199 Glenn Ave NE, Winston-Salem, NC 27105, United States",-80.2439335,36.1170396,"convenience","no"
"ChIJv5OAiwM7UogR16-T7OgoDf8","ALDI","1215 State St, Mt Airy, NC 27030, United States",-80.6193794,36.47781,"main","yes"
"ChIJj0R0O_5oU4gRkmMenygu0f0","ALDI","1318 E Dixie Dr, Asheboro, NC 27203, United States",-79.7877762,35.6964176,"main","yes"
"ChIJJcRDtN4NU4gRa__BG8c1QTs","Twin Roads Food Mart","1011 Liberty Rd, High Point, NC 27263, United States",-79.9471134,35.9232812,"convenience","no"
"ChIJk2llho4cU4gR-mt_PNBVOlQ","ALDI","1507 New Garden Rd, Greensboro, NC 27410, United States",-79.8831477,36.1107544,"main","yes"
"ChIJx8FoAMuyU4gRHL2t9-j8IF4","Family Dollar","1019 Bethania-Rural Hall Rd, Rural Hall, NC 27045, United States",-80.2998518,36.2129491,"dollar","no"
"ChIJGS2YzuGaVIgRmFGLfQ92SUk","Food King","102 W Chestnut St, Troy, NC 27371, United States",-79.894343,35.3590223,"main","yes"
"ChIJHwi5WdsrU4gR1ZWnVoJttgU","ALDI","1801 S Church St, Burlington, NC 27215, United States",-79.4601047,36.0849827,"main","yes"
"ChIJH990irEOU4gR9FRC2wuq1kk","Terry's Discount Grocery","1020 S Main St, High Point, NC 27260, United States",-80.0033345,35.9447335,"convenience","no"
"ChIJpUEtSMh8VIgRjrTTqHLgsjg","ALDI","1920 E Main St, Albemarle, NC 28001, United States",-80.1637465,35.3478106,"main","yes"
"ChIJ2aotbbm5U4gRswTPbLvzgIA","ALDI","2455 Market Center Dr, Clemmons, NC 27012, United States",-80.3809878,36.0319864,"main","yes"
"ChIJBcGJTUTDUogRwuB2VbDkpmM","Family Fare","1025 S Scales St, Reidsville, NC 27320, United States",-79.6647922,36.3472053,"convenience","no"
"ChIJSZYGeSENU4gRHSVIEd1QWAY","ALDI","2651 S Main St, High Point, NC 27263, United States",-79.9856207,35.9277288,"main","yes"
"ChIJLfVwlKEbU4gRRRvqs7KW5Z8","Carnicería El Mercadito","103 Muirs Chapel Rd, Greensboro, NC 27410, United States",-79.8694795,36.0703167,"local","yes"
"ChIJFcM_QOyvU4gRdp8Avr4gWm8","ALDI","2715 Peters Creek Pkwy, Winston-Salem, NC 27127, United States",-80.2583953,36.0541817,"main","yes"
"ChIJUSKyRMIZU4gRvpdfm9C3x1E","ALDI","2920 Randleman Rd, Greensboro, NC 27406, United States",-79.8056849,36.0161241,"main","yes"
"ChIJ4Sxa4nsdU4gRlXg0j3cGlBY","ALDI","2965 Battleground Ave, Greensboro, NC 27408, United States",-79.836264,36.1138335,"main","yes"
"ChIJaZ2S3ROvU4gRn858ophYcnU","EASTON GROCERY","1035 E, 1035 Clemmonsville Rd, Winston-Salem, NC 27107, United States",-80.2166439,36.0625923,"convenience","no"
"ChIJydeJy1jwUogRCO8rpS-ejGM","Dollar General","104 E Academy St, Madison, NC 27025, United States",-79.9586145,36.3850431,"dollar","no"
"ChIJkTZMn8VeUYgRBi-Xiyn2-Po","Barker's Grocery","104 Houpe Rd, Statesville, NC 28625, United States",-80.8684341,35.8410408,"convenience","no"
"ChIJkVr7PLg9UogRF5hcLxkaLRE","Dollar General","104 Mt View Dr, Mt Airy, NC 27030, United States",-80.5892,36.5299,"dollar","no"
"ChIJ4ez3uFbDUogR6wQbx8v5AJ8","La Autentica","104 Turner Dr B, Reidsville, NC 27320, United States",-79.65479,36.3393299,"local","yes"
"ChIJ54BO9ZMIU4gRcW74tZmkYK4","ALDI","3306 N Main St, High Point, NC 27265, United States",-80.0365949,36.0038755,"main","yes"
"ChIJgZrMVJyzUogRluPxNkGYtIM","ALDI","3465 Riverside Dr, Danville, VA 24541, United States",-79.4279228,36.5824313,"main","yes"
"ChIJfU5Qs6LyUYgRuIg5qf51CuM","Baywood Market & Deli Inc","10405 Grayson Pkwy, Galax, VA 24333, United States",-80.979531,36.6309607,"convenience","no"
"ChIJUfGtFGaFU4gRm7FvmLLWS6M","Southmont Grocery Inc","10411 NC-8, Southmont, NC 27351, United States",-80.2669455,35.6673151,"convenience","no"
"ChIJT-HnGj7nUogRPRPV9UOMGd0","McCollum's Hardware & Grocery","10475 US-158, Reidsville, NC 27320, United States",-79.7668528,36.2821349,"convenience","no"
"ChIJJZnOKlsaU4gRj3Z5DyKiFRA","ALDI","4222 W Gate City Blvd, Greensboro, NC 27407, United States",-79.8635061,36.0369525,"main","yes"
"ChIJ5UiauIGyU4gRWIxr_f7gUr0","ALDI","5622 W Hanes Mill Rd, Winston-Salem, NC 27105, United States",-80.278431,36.1738141,"main","yes"
"ChIJa3LoVK0AU4gRt5JIwYvsyj0","ALDI","819 S Main St D, Kernersville, NC 27284, United States",-80.08653,36.11022,"main","yes"
"ChIJq_NFtswfU4gRk0tQCB1FErs","Tienda Hispana La Pulpería de Greensboro","1054 Summit Ave A, Greensboro, NC 27405, United States",-79.77452,36.08755,"local","yes"
"ChIJBUADOwcbU4gRpLLLih-tDWA","Family Dollar","106 College Rd, Greensboro, NC 27410, United States",-79.8964424,36.0774272,"dollar","no"
"ChIJo1dfxUvxUogRVlgSiL3pvFg","Midtown tobacco & vape & CBD & kratom & Delta8","107 Mid Town Cmn, Madison, NC 27025, United States",-79.971416,36.400916,"convenience","no"
"ChIJi5HgGgDzU4gR5pHTr67Xw4A","ALDI","920 Jake Alexander Blvd W, Salisbury, NC 28147, United States",-80.4987975,35.6695242,"main","yes"
"ChIJY3fwAR3cUogRJH-QTiskI7c","Savemore Supermarket","110 McWalker Rd, Reidsville, NC 27320, United States",-79.6640029,36.2503081,"convenience","no"
"ChIJVfDH8EsPU4gREhGtX9MjfdA","Flowers Bakery Thrift Shoppe","1100 Greensboro Rd, High Point, NC 27260, United States",-79.9627009,35.9881039,"specialty","yes"
"ChIJ03uTenyhU4gRB8qqlLxWOrs","Carroll Community Mart","1100 Lexington Ave, Thomasville, NC 27360, United States",-80.1059756,35.8826595,"convenience","no"
"ChIJsTGPMr-vU4gRiYXSDqgPXas","Compare Foods","951 Silas Creek Pkwy, Winston-Salem, NC 27127, United States",-80.2524715,36.0682386,"main","yes"
"ChIJ1ZwWSccOU4gRIGYnc7LW3JE","Apple Tree Grocery","1105 E Green Dr, High Point, NC 27260, United States",-79.9925456,35.954066,"convenience","no"
"ChIJRcgNQ0LDUogRNTwBa5CkMY4","Family Dollar","1105 S Scales St, Reidsville, NC 27320, United States",-79.6646607,36.3459795,"dollar","no"
"ChIJIw_DBDZ7VIgROYwSp-9ptA4","Corner Super Market","1105 W Main St, Albemarle, NC 28001, United States",-80.2103012,35.3492334,"local","yes"
"ChIJNS6UngRpU4gRO8v6CPiI7lo","Ready Mart #4","1106 E Salisbury St, Asheboro, NC 27203, United States",-79.7946293,35.7044138,"convenience","no"
"ChIJi5dMZklpU4gRQ0WpPUVSV08","Compare Foods of Asheboro","372 N Fayetteville St, Asheboro, NC 27203, United States",-79.8112013,35.7105349,"main","yes"
"ChIJx1VjJT_qUogRZOqJL8T69-E","ATM","11074 NC-87, Eden, NC 27288, United States",-79.7671264,36.4487699,"convenience","no"
"ChIJSYQvQMQAU4gRC4zMLF-G2P4","La ideal/ mi casa Mexican grill","111 Adams St, Kernersville, NC 27284, United States",-80.0685532,36.124981,"local","yes"
"ChIJXXxQgN4ZU4gR786tQxZrBhw","Belona Foods","111 Marshall St, Greensboro, NC 27401, United States",-79.7657524,36.0742576,"local","yes"
"ChIJD2lHdnGgU4gRLfHN8-d37Wo","Family Dollar","1110 Lexington Ave, Thomasville, NC 27360, United States",-80.106521,35.8819669,"dollar","no"
"ChIJKYAIlQYPU4gRNqF8Qq0_agU","Merkeb Eritrean Grocery Store","1110 S Main St #101, High Point, NC 27260, United States",-80.0014593,35.9434761,"local","yes"
"ChIJrUwegDvDUogRLABmwjrftlI","Pace Grocery & Tobacco shop","1110 S Scales St, Reidsville, NC 27320, United States",-79.66545,36.3463414,"convenience","no"
"ChIJvfIA-3FrU4gRTIWVtLPKNWg","Quick 'n Easy Food Store","1114 S Main St, Randleman, NC 27317, United States",-79.813434,35.7971164,"convenience","no"
"ChIJzwm2MwoNU4gRK9pnWZ2qxuU","Trindale Foods","11143 Archdale Rd, Trinity, NC 27370, United States",-79.9472283,35.8823019,"convenience","no"
"ChIJjaqTKas8UogRFJFeZ0s7VUs","Family Dollar","1116 W Pine St, Mt Airy, NC 27030, United States",-80.6326049,36.5023451,"dollar","no"
"ChIJpwXbEeTqUogR3Ms-DYRFduE","AK Food Mart","1117 Washington St, Eden, NC 27288, United States",-79.778514,36.4873025,"convenience","no"
"ChIJb1-dDaMJU4gRgLE_bKHZLqg","convenunt store","1118 W English Rd, High Point, NC 27262, United States",-80.0180157,35.9525737,"convenience","no"
"ChIJIWoD6skKU4gRcCsTrrnusDs","Ingles Markets","1122 Randolph St #106, Thomasville, NC 27360, United States",-80.0746571,35.8584514,"main","yes"
"ChIJxcryUEBpU4gR0von_E9csAQ","M & M Grocery","1129 N Fayetteville St # 2, Asheboro, NC 27203, United States",-79.81,35.7236969,"convenience","no"
"ChIJLwbP0D3RU4gRjlsqikC6SIQ","Big River General Store","113 W Maple St, Yadkinville, NC 27055, United States",-80.6614333,36.1226155,"specialty","yes"
"ChIJ-4oxcy0fU4gRh5lzJVv6Ci0","Compare Foods of Greensboro","1040 Summit Ave, Greensboro, NC 27405, United States",-79.7747694,36.0867148,"main","yes"
"ChIJr6437c6ZU4gRxK5NDpcx6Ec","Compare Foods of Lexington","800 S Main St, Lexington, NC 27292, United States",-80.2620134,35.8176661,"main","yes"
"ChIJK7KdluOvU4gR__9_2u3AiHM","Compare Foods of Winston-Salem","550 N Martin Luther King Jr Dr, Winston-Salem, NC 27101, United States",-80.2303886,36.1016591,"main","yes"
"ChIJbZ0XEQY9UogRWUcR5m1OnHg","Dollar Tree","114 E Lebanon St, Mt Airy, NC 27030, United States",-80.6087108,36.5097099,"dollar","no"
"ChIJX_MkGR8jUogRnKNs4y8l6dc","Dollar General","114 White Pines Country Club Rd, Mt Airy, NC 27030, United States",-80.6537395,36.5532943,"dollar","no"
"ChIJeSl_0n0wUogRclJPR_pQO1Q","Little Mountain Grocery","1144 Little Mountain Church Rd, Ararat, NC 27007, United States",-80.5908615,36.4044731,"convenience","no"
"ChIJmQzKdRCvU4gRpzvA9UTE9k0","Food Lion","1000 Waughtown St, Winston-Salem, NC 27102, United States",-80.2193215,36.0683635,"main","yes"
"ChIJHczeJ-t_UYgRHgxima3IGjQ","Food Lion","101 Valley Dr, Jonesville, NC 28642, United States",-80.8318103,36.2386609,"main","yes"
"ChIJ7Tc8lOXLU4gRn7dX-_-1IgE","Family Dollar","117 E Nc 67 Hwy Bypass, East Bend, NC 27018, United States",-80.5053234,36.2156838,"dollar","no"
"ChIJ2_1VVMXqUogR0j8YLj402P8","Johnny's Produce","117 S Oakland Ave, Eden, NC 27288, United States",-79.7734774,36.5033377,"specialty","yes"
"ChIJP9mixIzpU4gRE1FEb3kiUiY","Dollar General","1171 Salisbury Rd, Mocksville, NC 27028, United States",-80.554815,35.872776,"dollar","no"
"ChIJ9xDV1rsNU4gRM9HgqA5MB-o","Food Lion","10102 S Main St, Archdale, NC 27263, United States",-79.9502881,35.9016079,"main","yes"
"ChIJVwQCEw_xUogRk6mrt01VQtI","Dollar Tree","118 New Market, Madison, NC 27025, United States",-79.968033,36.397619,"dollar","no"
"ChIJIcYAMkZrU4gRZtQvlDzNHKI","Tienda Mexicana Tres Hermanos - Randleman","118 Pointe S Dr, Randleman, NC 27317, United States",-79.810336,35.801131,"local","yes"
"ChIJ9YSvjTwBU4gROer-TA549Jo","Food Lion","1014 N Main St, Kernersville, NC 27284, United States",-80.0529357,36.1346776,"main","yes"
"ChIJtYqO9l3CU4gRNOcC1J84WyY","Aj Food Mart","1183 Yadkinville Rd, Mocksville, NC 27028, United States",-80.5816643,35.9147771,"convenience","no"
"ChIJjW9psBsPU4gRS7aaT10XsHI","Family Dollar","119 Greensboro Rd, High Point, NC 27260, United States",-79.9796346,35.9813402,"dollar","no"
"ChIJn_sw9I-NU4gR02Q9ccjZ28E","Rushco Food Store","1190 Long Ferry Rd, Salisbury, NC 28146, United States",-80.3988956,35.6953331,"convenience","no"
"ChIJC3tkq8uaVIgRvplfHQAeZvk","Food Lion","1020 Albemarle Rd, Troy, NC 27371, United States",-79.9134107,35.3477287,"main","yes"
"ChIJiZzvMf9WUogRutC72pQEtZ8","Hillside Market","1199 NC-8 #89, Danbury, NC 27016, United States",-80.2019813,36.4007923,"convenience","no"
"ChIJN5ic2r1QU4gRbAUBuDA-hu0","Bennett Food and Grocery","12 Buffalo St, Bennett, NC 27208, United States",-79.5439671,35.5669403,"convenience","no"
"ChIJIzL2dbbHUogRznlzjOJNbO4","Brown Farms Fresh Produce","120 Burton Rd, Reidsville, NC 27320, United States",-79.5814739,36.4285023,"specialty","yes"
"ChIJ72zJ0UTTU4gR2suz5D0jBVo","Dollar General","120 W Main St, Boonville, NC 27011, United States",-80.709922,36.2334204,"dollar","no"
"ChIJPWS5cFgYU4gRt2eYiGMC5v0","Food Lion","1023 Alamance Church Rd, Greensboro, NC 27406, United States",-79.7709151,36.0424993,"main","yes"
"ChIJn_5NsYa_UogRdK4_5D0VykI","Dollar General","1200 E Stadium Dr, Eden, NC 27288, United States",-79.7009403,36.5120812,"dollar","no"
"ChIJM2vITmxrU4gR38B6PsM0A9w","Food Lion","103 Pointe S Dr, Randleman, NC 27317, United States",-79.8119018,35.8009085,"main","yes"
"ChIJzyTXFNQNU4gRX9fsabcLG4A","Allen Jay Grocery","1203 E Fairfield Rd, High Point, NC 27263, United States",-79.9597544,35.9244328,"convenience","no"
"ChIJR3fZ1s8bU4gRz_NBlEyPIyc","Tienda Latina Oasis","1203 S Holden Rd suite b, Greensboro, NC 27407, United States",-79.8411887,36.0564532,"local","yes"
"ChIJEWscBggMU4gRtNmsTr1ckTg","Terry Discount Grocery #4","1204 W Fairfield Rd, High Point, NC 27263, United States",-80.0081412,35.921759,"convenience","no"
"ChIJafzcSFnDUogRiQJNxdNLH18","Weeks Grocery","1205 Barnes St, Reidsville, NC 27320, United States",-79.6547059,36.3481692,"convenience","no"
"ChIJQ2PhZcsoUogRtTGSCCl8ZWo","Supermercado Lalupita Inc","121 S Crutchfield St, Dobson, NC 27017, United States",-80.7230442,36.3945893,"local","yes"
"ChIJDUnPTSKmU4gR8v8a5VqSk5c","Food Lion","10478 NC-109, Winston-Salem, NC 27107, United States",-80.1635285,36.0253972,"main","yes"
"ChIJaf1VeuPyU4gR12IYoai7Nzo","Mc Laughlin's Grocery","1210 W Monroe St, Salisbury, NC 28144, United States",-80.4859412,35.6740308,"convenience","no"
"ChIJWXqGDZ1SUogRwdLHw7nPzwQ","Food Lion","1050, Germanton Rd, Rural Hall, NC 27045, United States",-80.2483119,36.2288288,"main","yes"
"ChIJA_ZiGy4fU4gRDSR2_Bkeo3Y","D & G Market","1213 Fairview St, Greensboro, NC 27405, United States",-79.773988,36.0913857,"local","yes"
"ChIJw8l5VNLPUogRvRmNTeXO5uQ","Chilton Grocery","12134 NC-150, Reidsville, NC 27320, United States",-79.5185178,36.3289791,"convenience","no"
"ChIJCVWPVMivU4gRVKVWVa1dgkw","Keh'Lani Groceries","1215 Link Rd suite E&F, Winston-Salem, NC 27103, United States",-80.2569394,36.0747041,"local","yes"
"ChIJfyi5W15WUogRF_CqN5qbpp8","Food Lion","1072 N Main St, Walnut Cove, NC 27052, United States",-80.1386278,36.3117432,"main","yes"
"ChIJpdPHCpeQUogRQSWdOq0tE9I","Food Lion","1101 Brookdale St, Martinsville, VA 24112, United States",-79.8490186,36.6795321,"main","yes"
"ChIJU0yknI0YUogRVefcCVeB0v0","LUCKYS","12178 Fancy Gap Hwy, Cana, VA 24317, United States",-80.6878684,36.6082407,"convenience","no"
"ChIJ9aVENAJ5UYgRXictIWxGBf8","Foster's Grocery & Hardware","12192 Elkin Hwy #268, Ronda, NC 28670, United States",-80.8776297,36.2514241,"convenience","no"
"ChIJx0AioykPU4gRWzyUvL5bEMg","Food Lion","1107 E Lexington Ave, High Point, NC 27260, United States",-80.0009991,35.9793861,"main","yes"
"ChIJe8P8BXLQU4gRNzS1kNCzCgU","Renegar Food Market","1221 Lone Hickory Rd, Yadkinville, NC 27055, United States",-80.6596779,36.0824732,"convenience","no"
"ChIJJYBJt3VpU4gRhZJyTQU5EQM","Americas Tienda y Carniceria","1223 N Fayetteville St, Asheboro, NC 27203, United States",-79.8092159,35.7263882,"local","yes"
"ChIJdaO3F9DcUogRpLja3yisKtc","Food Lion","1130 Freeway Dr., Reidsville, NC 27320, United States",-79.6855096,36.3255753,"main","yes"
"ChIJz1ROnBAPU4gRnjP1Z_i77lc","Southeast asian market- Nepali store","1229 S Main St #104, High Point, NC 27260, United States",-80.0014326,35.9435101,"local","yes"
"ChIJucHZizgPU4gRRw8O9MEwFhg","Dormes International Market / Mache Lakay","1229 S Main St, High Point, NC 27260, United States",-80.0011226,35.9433115,"local","yes"
"ChIJgT5w6vWvU4gRnukMaYXdQbY","El Exito","1229 W Clemmonsville Rd, Winston-Salem, NC 27127, United States",-80.2590845,36.0417522,"local","yes"
"ChIJR49d2VQjUogR5wpLZDEy_uM","Food Lion","1136 W Pine St, Mt Airy, NC 27030, United States",-80.6336455,36.5027621,"main","yes"
"ChIJ9VAaCv37U4gR5Bj4QhhJh2g","Food Lion","11745 Statesville Blvd, Cleveland, NC 27013, United States",-80.6940031,35.7287806,"main","yes"
"ChIJ0f63mjSuU4gRT1ybGfTaJK4","A-1 Grocery","1245 W Academy St, Winston-Salem, NC 27103, United States",-80.2594243,36.0848753,"convenience","no"
"ChIJVVUl5dI5U4gRjZz6STAaIdU","Circle K","127 E Swannanoa Ave, Liberty, NC 27298, United States",-79.5694093,35.8540608,"convenience","no"
"ChIJ42JiV6CxU4gRz_frS6ezl4E","Thanlwin Asian Food Market","127 Jonestown Rd, Winston-Salem, NC 27104, United States",-80.3345007,36.0785057,"local","yes"
"ChIJOWPxynQVUogRe3JrPbGDOd8","Jeb Stuart Grocery","1288 Ararat Hwy, Ararat, VA 24053, United States",-80.5493573,36.563916,"convenience","no"
"ChIJwWFr8GKuU4gRmuUFA-xj6ow","Tienda Garcia Latin American Grocery","1289 N Liberty St, Winston-Salem, NC 27101, United States",-80.2341189,36.1109392,"local","yes"
"ChIJ0x36QOoPU4gRAQj8qDc-enk","Food Lion","118 W Main St, Jamestown, NC 27282, United States",-79.9376331,35.994683,"main","yes"
"ChIJ75KcxbmnVIgRBsO4kyelEc0","La Comercial Supermarket LLc","130 Salisbury St, Robbins, NC 27325, United States",-79.586594,35.433213,"local","yes"
"ChIJ_bmi1nMZU4gR8tvy_ICMCGA","Le's Pantry","1301 Grove St, Greensboro, NC 27403, United States",-79.8126469,36.0531033,"convenience","no"
"ChIJbzGOXAELU4gRci9AyUE0xNc","Dollar General","1301 Trinity St, Thomasville, NC 27360, United States",-80.0533614,35.886995,"dollar","no"
"ChIJC2xB98LxUogRbJhu35x3DEk","Dollar Tree","131 Commerce Dr Ste A, Mayodan, NC 27027, United States",-79.9330864,36.4190541,"dollar","no"
"ChIJnb64MyynVIgRbZUUSK7ocSs","Carlie C's IGA","131 NC-705, Robbins, NC 27325, United States",-79.587998,35.4374432,"local","yes"
"ChIJO-ofMycbU4gRQ1dmFBIrYgs","Dollar Tree","1311 Bridford Pkwy, Greensboro, NC 27407, United States",-79.900992,36.0514651,"dollar","no"
"ChIJ_1YtCWWuU4gR5j_cocXTXJE","Family Dollar","1311 N Patterson Ave, Winston-Salem, NC 27105, United States",-80.2414754,36.1114073,"dollar","no"
"ChIJkSUYVG8ZUogRtxIFPK0_iMY","Towes Country Store","13142 Fancy Gap Hwy, Cana, VA 24317, United States",-80.6806971,36.594568,"specialty","yes"
"ChIJ38O3F98aU4gRReRxJdFEcSA","Super DESI BAZAAR","1315 Bridford Pkwy, Greensboro, NC 27407, United States",-79.9010237,36.0510791,"local","yes"
"ChIJNU5bQakZU4gR4UXTcKQF1GA","Food Lion","120 W Meadowview Rd, Greensboro, NC 27406, United States",-79.7933468,36.0395256,"main","yes"
"ChIJv3TM0UFpU4gRwEKa2Ciqlso","Food Lion","1200 N Fayetteville St, Asheboro, NC 27203, United States",-79.8080491,35.7251287,"main","yes"
"ChIJ65BVI4K_UogRh9upUrjm9nc","J-Mart","1320 E Stadium Dr, Eden, NC 27288, United States",-79.6970281,36.513799,"convenience","no"
"ChIJp3EkN8k8UogRASDZiUdpZi8","Food Lion","1215 W Lebanon St, Mt Airy, NC 27030, United States",-80.6255805,36.5253166,"main","yes"
"ChIJewoYNa4OU4gRL46NluBR55A","Los Amigos Market","1332 S Main St, High Point, NC 27260, United States",-80.0004839,35.9417539,"local","yes"
"ChIJAWMKhkJpU4gRzvIUP6tsi_4","Ready Mart","1334 N Fayetteville St A, Asheboro, NC 27203, United States",-79.80776,35.730178,"convenience","no"
"ChIJYUBmY17CU4gRLqCqdSdo9ZM","Dollar General","1334 Yadkinville Rd, Mocksville, NC 27028, United States",-80.5828574,35.9173388,"dollar","no"
"ChIJp6fpJ1JBU4gRn8YSqa8mKao","Carlie C's IGA","135 N Brady St, Ramseur, NC 27316, United States",-79.6560874,35.7384166,"local","yes"
"ChIJWdTIdV1pU4gRxkX1skmJj7c","Dollar General","1350 N Fayetteville St, Asheboro, NC 27203, United States",-79.8067029,35.7314626,"dollar","no"
"ChIJA5UkH8WvU4gRRkY0yKfykis","Tienda Hispana Salmar","1351 Lockland Ave, Winston-Salem, NC 27103, United States",-80.2613631,36.0712451,"local","yes"
"ChIJoePvxLPRU4gRt8p9yu0AqcE","Don Juan Tienda Mexicana","136 Beroth Dr, Yadkinville, NC 27055, United States",-80.6620401,36.1200542,"local","yes"
"ChIJv80lWeylU4gRj83i4zsFp2E","Food Lion","12201 NC-150, Winston-Salem, NC 27127, United States",-80.2700702,35.9936737,"main","yes"
"ChIJraPShjVBU4gRniA9_nFspqM","Family Dollar","139 N Brady St Ext, Ramseur, NC 27316, United States",-79.6565698,35.7382474,"dollar","no"
"ChIJNVb3VRNlUogRkM0mJCqzHSY","Howell's Grocery","139 Woolwine Hwy, Stuart, VA 24171, United States",-80.2777125,36.6771449,"convenience","no"
"ChIJwaPf_OvyU4gRAYAG4aFLrA0","Food Lion","123 Mahaley Ave, Salisbury, NC 28144, United States",-80.4807961,35.6840859,"main","yes"
"ChIJmXuOIMQKU4gRTWH0VT9ao44","Food Lion","13 Cloniger Dr #1, Thomasville, NC 27360, United States",-80.0701594,35.8662278,"main","yes"
"ChIJtS8gl43dUogRi7kUsvkhBRM","Dollar general","1401 US-29 BUS, Reidsville, NC 27320, United States",-79.6604509,36.2948041,"dollar","no"
"ChIJk9JFeVMeU4gRzmOrQkuwOvk","Food Lion","1316 Lees Chapel Rd, Greensboro, NC 27405, United States",-79.786769,36.133873,"main","yes"
"ChIJE4qTGYIfU4gRySSaOf7-6oo","Manna International Foods","1403 Yanceyville St Ste C, Greensboro, NC 27405, United States",-79.7827002,36.0890469,"local","yes"
"ChIJO1j8SdHcUogRBsud_5VyPtU","Freeway Mart","1404 Freeway Dr., Reidsville, NC 27320, United States",-79.6891921,36.3294972,"convenience","no"
"ChIJyTGSk11pU4gRURqChBjzSg8","Superior Groceries Halal Meat","1410 N Fayetteville St, Asheboro, NC 27203, United States",-79.8073164,35.7323451,"local","yes"
"ChIJT7FoJf5oU4gRrqEUUKGY0Fk","Food Lion","1327 E Dixie Dr, Asheboro, NC 27203, United States",-79.7889063,35.6972586,"main","yes"
"ChIJLyZbGlnwUogRZFnl_NyZR-M","J P Mart","142 W Murphy St, Madison, NC 27025, United States",-79.9613242,36.3877011,"convenience","no"
"ChIJx3m448zOU4gRxhXZ4lBe00A","Cutter's Mart","1420 Speer Bridge Rd, Yadkinville, NC 27055, United States",-80.545375,36.1197074,"convenience","no"
"ChIJvQVt2SKvU4gRJrt3wREJGdM","Family Dollar","1425 Waughtown St, Winston-Salem, NC 27107, United States",-80.2070926,36.0690217,"dollar","no"
"ChIJwxGF3l7CU4gR9SUUI3i5hvw","Food Lion","1388 US-601, Mocksville, NC 27028, United States",-80.5502688,35.8694098,"main","yes"
"ChIJkcbC7ukIU4gRk4G47QNM8O0","Food Lion","140 E Fairfield Rd #101, High Point, NC 27263, United States",-79.9790411,35.9243865,"main","yes"
"ChIJo4FRpRMfU4gR2xyIiCgU29Q","Family Dollar","1435 E Cone Blvd, Greensboro, NC 27405, United States",-79.7669388,36.1147865,"dollar","no"
"ChIJl8zHgjMBU4gRuE-SWLxsyeQ","421 Market & Grill","1438 E Mountain St, Kernersville, NC 27284, United States",-80.0378249,36.1103222,"convenience","no"
"ChIJ24oh4cJoU4gRcSVRnfoOcAQ","Dollar General","1450 Zoo Pkwy, Asheboro, NC 27205, United States",-79.810457,35.6876237,"dollar","no"
"ChIJJ0bsQrjjUogR5KbQeM5m2-Y","Dollar General","14500 US-158, Summerfield, NC 27358, United States",-79.8691025,36.2603132,"dollar","no"
"ChIJhc6amIeXU4gRmN4bGQpWKdg","Food Lion","140 Forest Hill Rd, Lexington, NC 27295, United States",-80.2797808,35.8356559,"main","yes"
"ChIJ6x0sYsCUUogRaV9NYHAPm-w","Parkview Grocery","14980 NC-87, Eden, NC 27288, United States",-79.8048531,36.5366925,"convenience","no"
"ChIJUcEH6r20UogRVA8sEWZ2XbQ","Food Lion","1403 S Main St, Danville, VA 24541, United States",-79.3996095,36.5541943,"main","yes"
"ChIJ5b9OQ4_cUogR6SSI9NNV9oU","Pulliam & Son Grocery","1499 US-29 BUS, Reidsville, NC 27320, United States",-79.6617993,36.2968803,"convenience","no"
"ChIJ_wmFUy6wU4gRM7qhZRTQ4Ek","Food Lion","1415 S Hawthorne Rd, Winston-Salem, NC 27103, United States",-80.2855283,36.0771421,"main","yes"
"ChIJr5ic1sQYU4gRIPnK7iaf_SU","M & M Grocery","1500 E Market St, Greensboro, NC 27401, United States",-79.7732365,36.0714954,"convenience","no"
"ChIJsSUN63s7UogR2Aw0VtkYBoA","Tienda Mexicana La Palma","1504 S Main St C, Mt Airy, NC 27030, United States",-80.595082,36.490165,"local","yes"
"ChIJu4zFkhS3U4gR3FzpTorf-ok","Food Lion","1430 River Ridge Dr, Clemmons, NC 27012, United States",-80.3924819,36.075625,"main","yes"
"ChIJmStS9_3DU4gRgqCNzx5FcZ8","Hoover Family Produce Market","151 Woodward Rd, Mocksville, NC 27028, United States",-80.5488148,35.9436872,"specialty","yes"
"ChIJqy_9j98jUogRCgJbBV1ktvo","The Mason Jar Market","1515 Fancy Gap Rd, Mt Airy, NC 27030, United States",-80.6361168,36.5343094,"convenience","no"
"ChIJQZ7mvYyuU4gRRus6Hz4aL1w","Food Lion","1499 New Walkertown Rd, Winston-Salem, NC 27101, United States",-80.2253345,36.1027586,"main","yes"
"ChIJzVU9QCcPU4gRY3NppNhZJaw","Desi Grocery & Halal Meat","1528 S Main St, High Point, NC 27260, United States",-79.9981794,35.9399451,"local","yes"
"ChIJJU-N98JoU4gRBPmm2mj-e3o","Samson & the Lion Natural Food","1528 Zoo Pkwy D, Asheboro, NC 27205, United States",-79.8095814,35.6861975,"specialty","yes"
"ChIJU9woH_bCU4gRHFJGHAVGj70","Rushco Food Store","1532 Yadkinville Rd, Mocksville, NC 27028, United States",-80.5874777,35.9213514,"convenience","no"
"ChIJA_NodF5pU4gRGxslBgjHh2Y","Tortilleria Dos Amigos","1533 N Fayetteville St, Asheboro, NC 27203, United States",-79.8089685,35.7380827,"specialty","yes"
"ChIJLWEL_zKAUYgRRafjBcQtC54","Food Lion","1526 N Bridge St, Elkin, NC 28621, United States",-80.8515309,36.2717759,"main","yes"
"ChIJf4if-9GpU4gRuVQtLlPKfm4","Food Lion","1535 Union Cross Rd, Kernersville, NC 27284, United States",-80.1068264,36.0764107,"main","yes"
"ChIJIwJIeOWwU4gRzT2XzAr74so","El Jacal","155 Jonestown Rd, Winston-Salem, NC 27104, United States",-80.3346965,36.0777011,"local","yes"
"ChIJ1aU7Gms8UogRi9ILLyD5llw","Dollar General","1560 E Pine St, Mt Airy, NC 27030, United States",-80.5676712,36.5124008,"dollar","no"
"ChIJDwQI3pVLU4gRq_8zM5ekMQ4","Food Lion","1605 E 11th St, Siler City, NC 27344, United States",-79.4411163,35.7351429,"main","yes"
"ChIJhRnXjPZJUogRKjRyT-nLang","Panda Store","1560 Perch Rd, Pinnacle, NC 27043, United States",-80.4397581,36.3160541,"convenience","no"
"ChIJ6bwVu943UogRl3g7Tm3f1Bk","Johnnny asgburn","157 Keebler Ln, Pilot Mountain, NC 27041, United States",-80.5117404,36.3939082,"convenience","no"
"ChIJ80JyP-FgU4gRidcm4gz2BTs","Fresh Cuts Butcher And Seafood Market","157 N Broad St, Seagrove, NC 27341, United States",-79.7803753,35.5422121,"specialty","yes"
"ChIJ4Rs1qu2wU4gRd0uL1wAJa78","Om Indian Groceries","1575 Hanes Mall Blvd, Winston-Salem, NC 27103, United States",-80.3355392,36.0699335,"local","yes"
"ChIJSULX4FDDUogRsrZdZacwSe8","Food Lion","1605 Way St, Reidsville, NC 27320, United States",-79.6573153,36.3411734,"main","yes"
"ChIJt7Xq1_QcU4gR2s30FMcw6cI","Dollar Tree","1583 New Garden Rd, Greensboro, NC 27410, United States",-79.881262,36.114736,"dollar","no"
"ChIJ67eyTgFZUYgRcpe1YKtLDdo","Food Lion","1650 E Broad St, Statesville, NC 28625, United States",-80.858968,35.7882162,"main","yes"
"ChIJ20L7rM0KU4gRKDfa0AYIjR0","Dollar Tree","1587 Liberty Dr #1, Thomasville, NC 27360, United States",-80.0665369,35.8545364,"dollar","no"
"ChIJs3B9jS4qU4gRMza4yX8W06Q","Food Lion","1780 W Webb Ave, Burlington, NC 27215, United States",-79.4623901,36.1075241,"main","yes"
"ChIJx2H-KXoZU4gRCRj2NTWUIIA","Food Lion","1911 Coliseum Blvd, Greensboro, NC 27403, United States",-79.8210949,36.0514219,"main","yes"
"ChIJL85QmkQJU4gRyNwO4V72ybk","Fairway one stop #17","1601 W Ward Ave, High Point, NC 27260, United States",-80.0238179,35.9378481,"convenience","no"
"ChIJyV2oY-c0rYkRnQVT3k1NFuU","Food Lion","1979 NC-86, Yanceyville, NC 27379, United States",-79.3499879,36.4160755,"main","yes"
"ChIJyRnJ8xmaU4gRgaFSJNnpVEU","Food Lion","1989 Cotton Grove Rd, Lexington, NC 27292, United States",-80.2602458,35.7707899,"main","yes"
"ChIJCZcOzIN7VIgRuaPDtZVHBCQ","Food Lion","2000 US-52, Albemarle, NC 28001, United States",-80.1942192,35.3884507,"main","yes"
"ChIJHfTX6JUiUogRPtSbp7ItHxM","Virginia Carolina Enterprises","16125 Fancy Gap Hwy, Cana, VA 24317, United States",-80.6536203,36.5631274,"specialty","yes"
"ChIJreUybKrqUogRgG6mPlGTaBU","Food Lion","205 E Meadow Rd #131, Eden, NC 27288, United States",-79.7391988,36.5095909,"main","yes"
"ChIJ-43FMWryU4gR3Kksi5YJoNI","Food Lion","2104 Statesville Blvd, Salisbury, NC 28147, United States",-80.5166687,35.6959818,"main","yes"
"ChIJY3CAk2EJU4gR94ca4du7N70","Food Lion","2200 Westchester Dr, High Point, NC 27262, United States",-80.0359399,35.9395228,"main","yes"
"ChIJcdIiZSRpU4gR6Vxo65CUDMA","Tienda El Centro #2 Inc","1648 Ferrari Dr, Asheboro, NC 27205, United States",-79.7637634,35.6555061,"convenience","no"
"ChIJlbh4qyAfU4gRS0AFOLpb_nA","Food Lion","2208 Golden Gate Dr, Greensboro, NC 27405, United States",-79.7823022,36.1026564,"main","yes"
"ChIJ6Xf83XnqU4gRO8PEcmVJc-Q","Crossroads Mart 1","1678 US-64, Mocksville, NC 27028, United States",-80.510112,35.8832353,"convenience","no"
"ChIJ9yyLzxKEUYgRwm6TXtXP7G8","FOOTHILLS GROCERY & DELI","1681 US-21, Thurmond, NC 28683, United States",-80.9200984,36.3625973,"convenience","no"
"ChIJQypsJo7cUogRa91UAnD2bE4","TIENDA DOÑA MARIA","1690 US-29 BUS, Reidsville, NC 27320, United States",-79.6646168,36.300865,"local","yes"
"ChIJYabUTzUfU4gRcaic4W2zMFE","Red Sea African and Mediterranean Market","1700 E Bessemer Ave, Greensboro, NC 27405, United States",-79.7633944,36.0843662,"local","yes"
"ChIJfT-GxN4PU4gRrOcWvVB2Uvk","Drozik's Produce","1700 E Green Dr, High Point, NC 27260, United States",-79.985282,35.953046,"specialty","yes"
"ChIJg9FJKhyaU4gRfzWABvjGR5c","Rushco Food Stores","1701 Cotton Grove Rd, Lexington, NC 27292, United States",-80.2600317,35.777798,"convenience","no"
"ChIJFS4Jmy4ZU4gRFuTIrw89Zs4","1706 spring garden","1706 Spring Garden St, Greensboro, NC 27403, United States",-79.819558,36.0639319,"convenience","no"
"ChIJwWqaTp4rU4gReNJlT8whYds","Burlington Oriental Market","1726 Maple Ave, Burlington, NC 27215, United States",-79.4272682,36.0732926,"local","yes"
"ChIJZaNrYgbrUogRYsDZKy2Bu7M","Quality Mart","1733 NC-135, Eden, NC 27288, United States",-79.7932937,36.4776007,"convenience","no"
"ChIJq6qqqvocU4gRLY-nVo-Vn4E","Food Lion","2217 Fleming Rd, Greensboro, NC 27410, United States",-79.9050144,36.1248875,"main","yes"
"ChIJMyu38kBzUYgRGGXQXPPBbpU","Food Lion","23-B Sparta Rd, North Wilkesboro, NC 28659, United States",-81.1478827,36.1816479,"main","yes"
"ChIJj3d-KrcYU4gRJAWJEHHJ1uI","Food Lion","2316 E Market St, Greensboro, NC 27420, United States",-79.7568775,36.0757499,"main","yes"
"ChIJAcTJAWN_U4gRNzc4i-TXyRc","Family Dollar","17999 NC-109, Denton, NC 27239, United States",-80.1079172,35.6316738,"dollar","no"
"ChIJ84livzPzU4gRUZpWDFfMHTQ","Food Lion","251 Faith Rd, Salisbury, NC 28146, United States",-80.4616809,35.6524452,"main","yes"
"ChIJjZBFwoOwU4gRZ0V3SgCwE04","Food Lion","2530 Somerset Center Dr, Winston-Salem, NC 27103, United States",-80.3292308,36.048908,"main","yes"
"ChIJB0rGqu8OU4gRoriq93IiTco","Brentwood Grocery & Fish","1804 Wade Pl, High Point, NC 27260, United States",-79.9779995,35.9595595,"local","yes"
"ChIJcYRD7ZQ7UogR51_ZO1vI2xE","Mayberry IGA","1810 Westfield Rd, Mt Airy, NC 27030, United States",-80.5883237,36.4854036,"local","yes"
"ChIJBcecZgTrUogRL5gGQRbD1sw","Dollar General","1819 NC-135 Bldg 2, Eden, NC 27288, United States",-79.7947825,36.476809,"dollar","no"
"ChIJk7zjeWb6UogRNuxzqBqZ-Pc","Knights Grocery","1887 Ellisboro Rd, Stokesdale, NC 27357, United States",-79.9778212,36.3323518,"convenience","no"
"ChIJPxqz8Hc7UogRad0zKaI8zCY","Dollar General","1900 S Main St, Mt Airy, NC 27030, United States",-80.5890178,36.4849561,"dollar","no"
"ChIJ0eYTiSWvU4gRG5606VCI7Ik","El Jarocho","1900 Waughtown St, Winston-Salem, NC 27107, United States",-80.1987085,36.0705831,"local","yes"
"ChIJwaJbKVYaU4gRkRHMSfoxHNM","Scottish Gourmet USA","1908 Fairfax Rd suite b, Greensboro, NC 27407, United States",-79.8748949,36.0432436,"local","yes"
"ChIJn256NlYpU4gRtEmjqMJdI4s","Food Lion","2660 Ramada Rd, Burlington, NC 27215, United States",-79.4700925,36.0681136,"main","yes"
"ChIJNyMCS_oYU4gRLquZ526UmJE","Jay's Mcadoo-Long Ent Inc","1917 Martin Luther King Jr Dr, Greensboro, NC 27406, United States",-79.7763259,36.0493623,"convenience","no"
"ChIJN9D22YA9UogR4OitrCbFRpY","Willis Gap General Store","1919 Willis Gap Mountain Rd, Ararat, VA 24053, United States",-80.5837251,36.5801994,"local","yes"
"ChIJq6La6-kIU4gRsIR2MxMsgKM","Food Lion","2705 N Main St, High Point, NC 27265, United States",-80.0325791,35.9933102,"main","yes"
"ChIJPcJp33sZU4gRZ2A3L6jLUtM","Family Dollar","1922 Coliseum Blvd, Greensboro, NC 27403, United States",-79.8231523,36.0512192,"dollar","no"
"ChIJL5pRGvUOU4gR-FmJfwsNOsY","Green Street Grocery","1924 E Green Dr, High Point, NC 27260, United States",-79.9831596,35.9529278,"convenience","no"
"ChIJaYYdqhyBUYgRgSORkUivgmA","State Road Grocery","1930 US-21, State Rd, NC 28676, United States",-80.8829829,36.3382509,"convenience","no"
"ChIJA5k0xp2ZU4gRmzOZ3oT66aw","T&T Mart","1936 Old U.S. Hwy 52, Lexington, NC 27295, United States",-80.2534876,35.8519648,"specialty","yes"
"ChIJISOX7ZVrU4gRoZaWlyIvBws","1/2 Price Grocery & Things","1947 N Fayetteville St, Asheboro, NC 27203, United States",-79.8063854,35.752593,"convenience","no"
"ChIJv_2nLP6QUogR41jplbq5uRI","Food Lion","2828 Greensboro Rd, Martinsville, VA 24112, United States",-79.8716582,36.6513374,"main","yes"
"ChIJ08MJXAvCU4gRgTxYbVP8M2U","Family Dollar","196 Wilkesboro St, Mocksville, NC 27028, United States",-80.5651544,35.8966214,"dollar","no"
"ChIJGdY7wKyZU4gRXa6Qi_kQE3E","Food Lion","291 Talbert Blvd, Lexington, NC 27292, United States",-80.2397899,35.8206108,"main","yes"
"ChIJV9gh4wSrU4gRwA5rXgNtaD4","Food Lion","3008 Old Hollow Rd, Walkertown, NC 27051, United States",-80.1521911,36.1676011,"main","yes"
"ChIJn1eEjM4OU4gR_jZSAQlxOlg","Washington Quick Mart","200 N Centennial St, High Point, NC 27260, United States",-80.0020038,35.9615757,"convenience","no"
"ChIJcWiFCsgYU4gRlK0yVJY5o_4","John's Curb Market","2000 E Market St, Greensboro, NC 27401, United States",-79.7635785,36.0736709,"convenience","no"
"ChIJl1_1sm6NU4gRcXFgcqd3pdc","Food Lion","313 Salisbury Ave, Spencer, NC 28159, United States",-80.4254368,35.6914317,"main","yes"
"ChIJh_3lIfSvU4gRMBEXNULrdLk","Food Lion","3197 Peters Creek Pkwy, Winston-Salem, NC 27127, United States",-80.2580936,36.0425025,"main","yes"
"ChIJg7sE_RkaU4gRTgCUFtS2x88","Town & Country Meat Produce Market, LLC","2008 W Vandalia Rd, Greensboro, NC 27407, United States",-79.8406599,36.0217603,"local","yes"
"ChIJ5zGY-bdoU4gRCmKUr2zxqYY","Ready Mart # 2","2010 S Fayetteville St, Asheboro, NC 27205, United States",-79.8187748,35.6786163,"convenience","no"
"ChIJBW9E5EX6UogRfkwR4M5zaAY","Rocky's Grocery","2015 Ellisboro Rd, Stokesdale, NC 27357, United States",-79.9803555,36.3292967,"convenience","no"
"ChIJt5lI76-vU4gRONh5491RJOU","Family Dollar","2017 S Broad St, Winston-Salem, NC 27127, United States",-80.2423691,36.0716404,"dollar","no"
"ChIJH64p3C6uU4gRACx6y0yGiDU","Cloverdale Market","2020 Cloverdale Ave, Winston-Salem, NC 27103, United States",-80.2697,36.0913951,"local","yes"
"ChIJd93v46-vU4gRsoli529bhV4","J And J Food Mart","2022 S Broad St, Winston-Salem, NC 27127, United States",-80.2430942,36.0717112,"convenience","no"
"ChIJ23b_-6UOU4gRL3wzuRQcEt4","Universal Halal Meat & Grocery","2025 College Dr A, High Point, NC 27260, United States",-79.9973732,35.9374341,"local","yes"
"ChIJb0LW37cYU4gRkprGxzCu4OA","Apple Tree 2 Grocery","2027 E Market St, Greensboro, NC 27401, United States",-79.7623082,36.0748226,"convenience","no"
"ChIJZYEisU2YU4gRdJqA6NpX33w","Best Food Mart","203 Raleigh Rd, Lexington, NC 27292, United States",-80.2457015,35.8265291,"convenience","no"
"ChIJ2ecpVBEaU4gREswcUqHJlTg","Food Lion","3219 S Holden Rd, Greensboro, NC 27407, United States",-79.8454301,36.0217041,"main","yes"
"ChIJk1Y9dd4ZU4gRmlAOFFwdyyE","Food Lion","3228 Randleman Rd, Greensboro, NC 27406, United States",-79.8073486,36.0072642,"main","yes"
"ChIJuWDhiVqBUYgR9oUTgGRSLyU","Cabeland Farm","2060 Mountain Park Rd, State Rd, NC 28676, United States",-80.8695875,36.3384047,"specialty","yes"
"ChIJPb9vOQvCU4gRHDPX2F52iTk","Tienda Acapulco","207 Avon St, Mocksville, NC 27028, United States",-80.5653497,35.8956031,"convenience","no"
"ChIJR8EYV0uAUYgROl-Oz1A4Q_g","Ingles Markets","2095 N Bridge St, Elkin, NC 28621, United States",-80.8539523,36.2857404,"main","yes"
"ChIJqXN6o4SvU4gRHgr8oEiD9QM","Tienda Mexican San Miguel","21 W Clemmonsville Rd, Winston-Salem, NC 27127, United States",-80.2383183,36.0479646,"convenience","no"
"ChIJFQx3jrdoU4gREblqkz35tnY","Southend Market","2100 S Fayetteville St, Asheboro, NC 27205, United States",-79.819125,35.6774632,"convenience","no"
"ChIJqd1fmZgZU4gRg4e3E8R-n48","EmarketGrocery","2101 E Market St #F, Greensboro, NC 27401, United States",-79.7604027,36.075058,"convenience","no"
"ChIJly7BTm-wU4gRuSvyEas10Fg","W G Myers Grocery Store","2101 Griffith Rd, Winston-Salem, NC 27103, United States",-80.3090654,36.0593486,"convenience","no"
"ChIJ00cnKWsbU4gRtvwn5ZVNWxA","Mini Super","2101 Merritt Dr, Greensboro, NC 27407, United States",-79.8617818,36.0402915,"local","yes"
"ChIJC869AtgbU4gR-Aucto5qOUE","Bangkok Market. Asian Food And Groceries","2101 Patterson St b, Greensboro, NC 27407, United States",-79.8302966,36.0578177,"local","yes"
"ChIJI7EOrQkZU4gRqZjXS4v90gE","Family Dollar","2101 Randleman Rd, Greensboro, NC 27406, United States",-79.7988328,36.0464275,"dollar","no"
"ChIJ_xECTTDWUogRWrbjhn9ZUxg","North Crest food mart","2103 N North Carolina Hwy 87, Elon, NC 27244, United States",-79.5061968,36.1605463,"convenience","no"
"ChIJq-EEsaBYUYgR8g4Y20D9mi4","Food Lion","3474 E Broad St, Statesville, NC 28625, United States",-80.8101813,35.8066287,"main","yes"
"ChIJ14QukFHbUogRtO9YwKExJLk","ET FOOD MART, INC","2106 Barnes St, Reidsville, NC 27320, United States",-79.6408902,36.3253561,"convenience","no"
"ChIJbZJT7s-tU4gRMAK3lc8x-3I","Food Lion","3505 Patterson Ave, Winston-Salem, NC 27105, United States",-80.2404088,36.1348551,"main","yes"
"ChIJyysV10scU4gR0EWoOsJS7Yk","Giacomo's Italian Market","2109 New Garden Rd E, Greensboro, NC 27410, United States",-79.8323995,36.1342079,"local","yes"
"ChIJp8N3E9woU4gRJaBylTMqnaE","Food Lion","3535 S Church St, Burlington, NC 27215, United States",-79.5149276,36.0810399,"main","yes"
"ChIJ5--psjHWUogRko2abH_08PU","Family Dollar","2113 NC-87, Elon, NC 27244, United States",-79.5063123,36.1608107,"dollar","no"
"ChIJdXIj2l8ZU4gRKgelmm9PikE","Bestway","2113 Walker Ave, Greensboro, NC 27403, United States",-79.8276033,36.0686419,"local","yes"
"ChIJfasyFBEaU4gRFFcZ2cJT1l0","Family Dollar","2115 W Vandalia Rd, Greensboro, NC 27407, United States",-79.8446803,36.0202557,"dollar","no"
"ChIJ86g9PjkfU4gR2sVkRVp4eCw","Greensboro Olive Traders","2134 Lawndale Dr Ste B, Greensboro, NC 27408, United States",-79.8157189,36.0955644,"specialty","yes"
"ChIJwUCpJcYAU4gR5zs2Xw7EzF8","One Stop Food Store","217 N Main St, Kernersville, NC 27284, United States",-80.0721578,36.1216659,"convenience","no"
"ChIJI-REoSYMU4gR8gLy-YnbppI","Fairfield Oriental Market","219 E Fairfield Rd, High Point, NC 27263, United States",-79.9797264,35.9252731,"local","yes"
"ChIJs2KfMOOLUogR42aDwCQqkF4","Best Mart","21915 A L Philpott Hwy, Spencer, VA 24165, United States",-80.020928,36.6171223,"convenience","no"
"ChIJcyfMYM4OU4gRlk-bcafQl4Y","Superior Foods","220 N Centennial St, High Point, NC 27260, United States",-80.0018291,35.9620664,"local","yes"
"ChIJx0ZwSKDqUogRTIHJOmoAnd4","Dollar Tree","220 W Kings Hwy E, Eden, NC 27288, United States",-79.7435802,36.4912458,"dollar","no"
"ChIJG6iRZmK_U4gRsa-H5kHBxaQ","Bixby General Store & Deli LLC","2200 Cornatzer Rd, Advance, NC 27006, United States",-80.4538163,35.9399915,"convenience","no"
"ChIJ_9cMHFsfU4gRgrkjHy_8XVU","Kim Food Mart","2200 Phillips Ave, Greensboro, NC 27405, United States",-79.7493698,36.0967849,"convenience","no"
"ChIJYx5g-tsIU4gREBqJohhWygQ","Family Dollar","2200 Westchester Dr #120, High Point, NC 27262, United States",-80.03592,35.93943,"dollar","no"
"ChIJ5XdpwHoaU4gRnRN7yaHfi9E","Food Lion","3603 Groometown Rd, Greensboro, NC 27407, United States",-79.8634584,36.0166762,"main","yes"
"ChIJ5x0KmuMOU4gRc5WSZE759yI","Sellers Grocery","2201 Little Ave, High Point, NC 27260, United States",-79.9787388,35.9687821,"convenience","no"
"ChIJAzkzCry6U4gRQmM3N2eNPo0","Family Dollar","2201 W Clemmonsville Rd, Winston-Salem, NC 27127, United States",-80.2936699,36.0278498,"dollar","no"
"ChIJdxyTiLGzU4gRzTSIM-UQPzo","Food Lion","3800 Reynolda Rd #80, Winston-Salem, NC 27106, United States",-80.32682,36.16152,"main","yes"
"ChIJH436EfmWUYgREM2kZKBTInc","Food Lion","381 S Main St Ste 508, Sparta, NC 28675, United States",-81.1145222,36.5020015,"main","yes"
"ChIJQfo5D5d_UYgRpH8CcD_THmY","Dollar General","221 Winston Rd, Jonesville, NC 28642, United States",-80.84392,36.2404327,"dollar","no"
"ChIJVXKb6trcUogRsTEhOb9l5Vw","I H Food Mart","2216 US-29 BUS, Reidsville, NC 27320, United States",-79.6718082,36.3142265,"convenience","no"
"ChIJ4as8xnUFU4gRRaDC9jHJrJU","Food Lion","3935 Brian Jordan Pl, High Point, NC 27265, United States",-79.9614116,36.0333788,"main","yes"
"ChIJfz0UR9gbU4gRYcv3y17Jabo","El Marjan Halal Market","2218 Patterson St, Greensboro, NC 27407, United States",-79.8310599,36.05941,"local","yes"
"ChIJ-5cqiBjdUogRHU2YuytGAJY","Cox Family Blueberry Farm","2223 S Scales St, Reidsville, NC 27320, United States",-79.6663928,36.3254212,"specialty","yes"
"ChIJ84md3jk7UogRTZblvF93qTQ","Dollar Tree","2230 Rockford St, Mt Airy, NC 27030, United States",-80.6215043,36.4734964,"dollar","no"
"ChIJBTvJkNF5VIgRKDkj2oCgZaI","Food Lion","410 W Church St, Richfield, NC 28137, United States",-80.2675008,35.4732051,"main","yes"
"ChIJIyLGeC5pU4gR6tSDH0ZZkwI","Peachtree Produce","225 Peachtree St, Asheboro, NC 27203, United States",-79.8239183,35.7097805,"specialty","yes"
"ChIJv6V__yHpUogR6B034rh9hcI","Twin Oaks Grocery","2257 NC-65, Reidsville, NC 27320, United States",-79.8071954,36.3943924,"convenience","no"
"ChIJ3Zu7D2-EUYgRMefQ3O2Ea-s","Thurmond Grocery","2274 US-21, Thurmond, NC 28683, United States",-80.929954,36.3652603,"convenience","no"
"ChIJ6aN9TGGuU4gRyW3cJetEW0E","TBC","228 W Acadia Ave, Winston-Salem, NC 27127, United States",-80.2439341,36.0710088,"local","yes"
"ChIJnfkCcp0rU4gR88Z7vWDcttE","Food Lion","414 Harden St, Burlington, NC 27215, United States",-79.4263449,36.0668683,"main","yes"
"ChIJo725vcz4UogR0VTY3U-XX5k","Smith's Grocery & Grill","2294 Pine Hall Rd, Belews Creek, NC 27009, United States",-80.0466159,36.3095044,"convenience","no"
"ChIJEaixL8NoU4gRbBKFr_mAPfE","Food Lion","433 State Hwy 49, Asheboro, NC 27203, United States",-79.8430669,35.6816523,"main","yes"
"ChIJWS92TqcZU4gR14fUde9jZRQ","OM GROCERY","2300 Randleman Rd, Greensboro, NC 27406, United States",-79.8012013,36.0437369,"convenience","no"
"ChIJC7ZfkvgOU4gRVylLbxa1P7c","Loma Bonita","2304 E M.L.K. Jr Dr, High Point, NC 27260, United States",-79.9652292,35.9649448,"local","yes"
"ChIJoYO-WxC0UogRwTDysFczReA","Old Dutch Supermarket Inc","2306 W Main St, Danville, VA 24541, United States",-79.4579951,36.5592406,"local","yes"
"ChIJnXvT5rYYU4gRNL3AzdA3kj0","Family Dollar","2316 E Market St, Greensboro, NC 27401, United States",-79.7568775,36.0757499,"dollar","no"
"ChIJ8ePhK7A5U4gRp13X8FYXgH0","Food Lion","434 W Swannanoa Ave, Liberty, NC 27298, United States",-79.5790235,35.853871,"main","yes"
"ChIJCaixq1sfU4gRXP159SPMFFo","A.J Grocery","2316 Phillips Ave, Greensboro, NC 27405, United States",-79.7482727,36.0963532,"convenience","no"
"ChIJqTi3VFofU4gRpciM2jLu22E","Foodway Grocery","2318 Phillips Ave, Greensboro, NC 27405, United States",-79.7482607,36.096331,"convenience","no"
"ChIJ3WwE618JU4gR1jZKwoX3uys","Bizzy Bee Grocery","2335 W English Rd, High Point, NC 27262, United States",-80.0301756,35.9356714,"convenience","no"
"ChIJN8aeWaybU4gRw5dHnxESQjo","Michael's Grocery","2352 NC-47, Lexington, NC 27292, United States",-80.2289835,35.742332,"convenience","no"
"ChIJE0JB95VrU4gRNAC15bE4i5Q","Family Dollar","2358 N Fayetteville St, Asheboro, NC 27203, United States",-79.806867,35.7693873,"dollar","no"
"ChIJK-14sk51U4gR0JQKer4FVSo","Cedar Lodge Market","237 Cedar Lodge Rd, Thomasville, NC 27360, United States",-80.0815601,35.8464146,"local","yes"
"ChIJOSnNvvwLU4gRwjjwmh1ofNk","Dilligaf Smokes & More","24 W Main St, Thomasville, NC 27360, United States",-80.0827374,35.8829696,"convenience","no"
"ChIJ4Rg9_IKaUogRY7mlgEtNZ2U","Kroger","240 Commonwealth Blvd W, Martinsville, VA 24112, United States",-79.8774584,36.6983985,"main","yes"
"ChIJdxzL0fS5U4gReH635MAWDBw","Food Lion","4380 Kinnamon Village Lp, Clemmons, NC 27012, United States",-80.3713456,36.0270287,"main","yes"
"ChIJ3b-9yIIZU4gRv2tQeR4y9EI","Battambang Asian Market","2402 Coliseum Blvd, Greensboro, NC 27406, United States",-79.8161198,36.0415472,"local","yes"
"ChIJL41pApZrU4gRLXFTEQFzMGg","Econo Mart #1","2410 N Fayetteville St, Asheboro, NC 27203, United States",-79.8075019,35.7705596,"convenience","no"
"ChIJC2TyE5ZrU4gRQFfRO6Emt6Y","Super Mexicana Los Reyes","2419 N Fayetteville St #B, Asheboro, NC 27203, United States",-79.8083836,35.7708365,"local","yes"
"ChIJoXM71tUbU4gRfb1B_D8sM0w","Your Way Food Store","2436 W Florida St, Greensboro, NC 27403, United States",-79.8321227,36.0528393,"convenience","no"
"ChIJ5brNx5DiUogRJxrdFZXFN2E","Food Lion","4548 US-220, Summerfield, NC 27358, United States",-79.8904948,36.192711,"main","yes"
"ChIJw_XUPsYAU4gRcL58SPnJ5V0","Musten & Crutchfield Food Market","245 N Main St, Kernersville, NC 27284, United States",-80.0721324,36.1224214,"specialty","yes"
"ChIJ5R_BIvOzU4gRaHg14D26xQw","Food Lion","4615 Yadkinville Rd, Pfafftown, NC 27040, United States",-80.3584699,36.1545565,"main","yes"
"ChIJr9BKRRfyU4gRLtJiqGFi2M4","Rushco Food Stores","2480 Statesville Blvd, Salisbury, NC 28147, United States",-80.5311045,35.699048,"convenience","no"
"ChIJkxKX5EwfU4gR0V_eLZkouDU","Panther's Grocery","2501 E Bessemer Ave #7480, Greensboro, NC 27405, United States",-79.7544052,36.0854592,"convenience","no"
"ChIJT9fuxT09U4gRynvO9PeIplY","Food Lion","4620 Woody Mill Rd A, Greensboro, NC 27406, United States",-79.7003056,35.9664051,"main","yes"
"ChIJbbyFtG0gU4gRilInbWIRD30","Food Lion","4634 Hicone Rd H, Greensboro, NC 27405, United States",-79.71139,36.15115,"main","yes"
"ChIJj1_9jFkfU4gRGjtQzoUUThY","Family Dollar","2515 Phillips Ave, Greensboro, NC 27405, United States",-79.7446755,36.0962705,"dollar","no"
"ChIJOwoRnuy5U4gRHnX4bXpyTJg","Lindo Michoacan Tienda LLC","2518 Lewisville Clemmons Rd B, Clemmons, NC 27012, United States",-80.3829504,36.0298719,"local","yes"
"ChIJpy8uxNaxU4gRR925ASDxdlU","Trader Joe's","252 S Stratford Rd, Winston-Salem, NC 27103, United States",-80.2819144,36.0930435,"main","yes"
"ChIJqX4UJaIbU4gRwuLSYQNpzB8","Food Lion","4653 W Market St, Greensboro, NC 27402, United States",-79.8669586,36.0681127,"main","yes"
"ChIJqdAqjJsFU4gREhmCs2R92wg","INDU INDIAN GROCERY and Fresh farmers market","2531 Eastchester Dr #101, High Point, NC 27265, United States",-79.97037,36.02985,"local","yes"
"ChIJGU2SFX7VUogRRfT8nKTTEFI","Five Points Grocery","2533 Carolina Rd, Burlington, NC 27217, United States",-79.4225197,36.1433144,"convenience","no"
"ChIJRTNkENvrU4gRHniteKCsu9o","R Store","2576 US-601, Mocksville, NC 27028, United States",-80.6092947,35.9523893,"convenience","no"
"ChIJMyGXc4AjUogRWiZuwkxxtWQ","Dollar General","2576 W Pine St, Mt Airy, NC 27030, United States",-80.6783788,36.504272,"dollar","no"
"ChIJhf6dc7wZU4gRjEMkeRtVRk0","Family Fare","2600 Randleman Rd, Greensboro, NC 27406, United States",-79.8021166,36.0297197,"convenience","no"
"ChIJt_CljPVtUogRblPA0V11tUs","Meadows of Dan Food Market","2609 Jeb Stuart Hwy, Meadows of Dan, VA 24120, United States",-80.4079175,36.7355234,"convenience","no"
"ChIJEbsm8hCUU4gRVujICUX2qQw","Food Lion","4705 NC-150, Lexington, NC 27295, United States",-80.3772768,35.8043273,"main","yes"
"ChIJDYURYiQMU4gReAuw3M3pZUs","Apna Halal Meats","2610 Plaza Ct #107, High Point, NC 27263, United States",-79.9864058,35.9251733,"local","yes"
"ChIJEfCUQE0fU4gRwFLxto3UxQs","Super-S-Mart","2612 E Bessemer Ave, Greensboro, NC 27405, United States",-79.7523131,36.0848965,"convenience","no"
"ChIJi3HCLtQdU4gRUlfxwmhXvxM","Food Lion","4709 Lawndale Dr, Greensboro, NC 27408, United States",-79.833701,36.1392346,"main","yes"
"ChIJy2WrUeawU4gR7xy0Ti4ypA4","Food Lion","4826 Country Club Rd, Winston-Salem, NC 27102, United States",-80.3416415,36.0807088,"main","yes"
"ChIJcWcCLCXEUogRmUeo5mKV9Sw","Food Lion","5200 US Bus Hwy 29, Reidsville, NC 27320, United States",-79.6644747,36.3548586,"main","yes"
"ChIJvX9VNqjzU4gRskpeyIPvMVY","Food Lion","525 Jake Alexander Blvd W, Salisbury, NC 28147, United States",-80.5019046,35.6616478,"main","yes"
"ChIJq6qqqmq_U4gR3l3qXHy_SyE","Food Lion","5285 US-158, Advance, NC 27006, United States",-80.440385,36.0047039,"main","yes"
"ChIJTQLi9JO5U4gRkG4WU6Xvgks","Clemmons Country Store","2690 Lewisville Clemmons Rd, Clemmons, NC 27012, United States",-80.3824195,36.0240795,"local","yes"
"ChIJ7dcC6hsPU4gRtoDDHflUbEY","Pantry Shop","2700 E Lexington Ave, High Point, NC 27262, United States",-79.9798094,35.9800077,"convenience","no"
"ChIJ9xO0m5mzUogReuwzPISPGOE","Food Lion","540 Westover Dr, Danville, VA 24541, United States",-79.4339947,36.587563,"main","yes"
"ChIJPTiM7dsZU4gRJ2Kp2Va3ah4","Los Amigos Grocery 2","2701 S Elm-Eugene St, Greensboro, NC 27406, United States",-79.79117,36.0405993,"convenience","no"
"ChIJHznHFDwvUogRKIw4PFLw3DI","Food Lion","600 E Atkins St, Dobson, NC 27017, United States",-80.715811,36.3940667,"main","yes"
"ChIJfc92kH6zUogRqqewF86iM6A","Food Lion","607 W Main St, Danville, VA 24541, United States",-79.4177271,36.5715064,"main","yes"
"ChIJda60pM9eUYgR_9MJW0p4cTY","Food Lion","608 Turnersburg Hwy, Statesville, NC 28625, United States",-80.8703819,35.8357419,"main","yes"
"ChIJS7b97P3wUogRn8rqGfTWJho","Food Lion","614 Burton St, Madison, NC 27025, United States",-79.9730363,36.4027598,"main","yes"
"ChIJe6PE4PoXUogR6S1RMMF1tF0","Flemings Orchard","2728 Wards Gap Rd, Cana, VA 24317, United States",-80.6230004,36.5928656,"specialty","yes"
"ChIJ8yTZL0HSU4gRZeHiH4BRfPI","B S Brendle Grocery","2736 Country Club Rd, Yadkinville, NC 27055, United States",-80.6597792,36.1827169,"convenience","no"
"ChIJG9E5SbfRU4gRzYJ6HpFQAYs","Food Lion","616 S State St, Yadkinville, NC 27055, United States",-80.6613033,36.1245829,"main","yes"
"ChIJydFHUk9yUYgRsVpdT0PLL5U","Brushy Mountain IGA","2759 Statesville Rd, North Wilkesboro, NC 28659, United States",-81.1019365,36.1389868,"local","yes"
"ChIJRcRHO-KtU4gR7FXUo2qOotM","Family Dollar","2802 University Pkwy, Winston-Salem, NC 27105, United States",-80.2615343,36.1274611,"dollar","no"
"ChIJQcLgHdoLU4gR4mtHvp_GC1M","High Point Grocery","2803 W English Rd, High Point, NC 27262, United States",-80.0413773,35.9299275,"convenience","no"
"ChIJje2xyM3NU4gRWfU4jAyS6aQ","Hutchens Blueberry","2809 Indian Heaps Rd, East Bend, NC 27018, United States",-80.545876,36.190171,"specialty","yes"
"ChIJYb6dkhkaU4gRkh3v-hWl8Cg","Nc Market Asian Grocery","2817 Pinecroft Rd, Greensboro, NC 27407, United States",-79.8393489,36.0215553,"local","yes"
"ChIJza5_PoSvU4gRLzlCmnfxhQ0","Tienda Latina, Corp","2825 New Walkertown Rd Suite L, M, Winston-Salem, NC 27105, United States",-80.2067495,36.1157606,"local","yes"
"ChIJ_d8S4j-vU4gRX-6QVrpZ3pI","la michelada market","2825 New Walkertown Rd, Winston-Salem, NC 27105, United States",-80.2067495,36.1157606,"local","yes"
"ChIJyfJtCxKvU4gRhn8CPv5chl0","311 Grocery","2825 suite F, New Walkertown Rd, Winston-Salem, NC 27105, United States",-80.1992847,36.1331409,"convenience","no"
"ChIJCW5SEx4kU4gRT_ZHBu2fWfk","Food Lion","6307 Burlington Rd, Whitsett, NC 27377, United States",-79.6079212,36.0649595,"main","yes"
"ChIJGxuMoylMUogROKZcAxOK55E","Food Lion","6370 NC-66, King, NC 27021, United States",-80.3316681,36.3015486,"main","yes"
"ChIJNcaRKsIZU4gRcf8GVj4JHqE","Orange Mart","2840 Randleman Rd, Greensboro, NC 27406, United States",-79.8045982,36.0178486,"convenience","no"
"ChIJB4PWo5ivU4gRL6KLmylctqk","B & S Supermarket","2850 S Main St, Winston-Salem, NC 27127, United States",-80.238984,36.0593999,"convenience","no"
"ChIJ9ZNl5-glUogRGg5hLgt2rwE","GONZALES PRODUCE MT AIRY","2852 W Pine St, Mt Airy, NC 27030, United States",-80.6883884,36.5030893,"specialty","yes"
"ChIJBcheOhmjU4gRkwNhB4Kfem4","Food Lion","6455 Old U.S. Hwy 52, Welcome, NC 27374, United States",-80.2534227,35.9135478,"main","yes"
"ChIJP24LcNQbU4gR-XLIAQHSawg","E Z Way Grocery","2906 High Point Rd, Greensboro, NC 27403, United States",-79.8346654,36.0507565,"convenience","no"
"ChIJIUlkX78bU4gR2ZlY-PD-sEs","New York grocery inc.","2906 W Gate City Blvd, Greensboro, NC 27403, United States",-79.8346858,36.0507531,"convenience","no"
"ChIJy-cH1r83UogRREm8NQ5LKhM","Food Lion","647 S Key St E, Pilot Mountain, NC 27041, United States",-80.4794929,36.3802419,"main","yes"
"ChIJFZO_96KYU4gRs8vtHFBtjC8","City Lake Food Mart","292 Ridge Rd, Lexington, NC 27295, United States",-80.2087054,35.8548808,"convenience","no"
"ChIJC6iNlLS3U4gRWP82vC9E0FA","Food Lion","6810 Shallowford Rd, Lewisville, NC 27023, United States",-80.4297834,36.0946981,"main","yes"
"ChIJk3_j5M7XU4gRGP68KtMhMfM","El Lugar De Najera","2924 Rocky Branch Rd, Hamptonville, NC 27020, United States",-80.7983181,36.1175791,"local","yes"
"ChIJtaUTt1QfU4gR7OJ1FjNw42s","Family Dollar","2927 E Market St, Greensboro, NC 27405, United States",-79.7442593,36.0831037,"dollar","no"
"ChIJFZuL_QMPU4gR1FNH47aTluA","Three Lao sister market LLC","2931 E M.L.K. Jr Dr, High Point, NC 27260, United States",-79.953843,35.9646712,"local","yes"
"ChIJmajT4SmpU4gREo5vzcr5wYA","El Rey","2946 Waughtown St, Winston-Salem, NC 27107, United States",-80.1807498,36.0764247,"specialty","yes"
"ChIJ5bTWnEM7UogReeHYvo0jJp0","Food Lion","692 S Andy Griffith Pkwy #112, Mt Airy, NC 27030, United States",-80.6175155,36.4859695,"main","yes"
"ChIJWSDg5zlGUogRhTek_-Wb9F4","Cornerstone Market","2996 NC-268, Pinnacle, NC 27043, United States",-80.3987217,36.4123228,"local","yes"
"ChIJAbJ6z1QfU4gRV2PBriqcFkQ","Foode Rite Curb Market & Deli","3000 E Market St, Greensboro, NC 27405, United States",-79.7435255,36.0832821,"convenience","no"
"ChIJLVVZ8MIZU4gRKoXfGqi3ZhU","Family Dollar","3000 Randleman Rd, Greensboro, NC 27406, United States",-79.8055536,36.0149771,"dollar","no"
"ChIJk5kCN9cLU4gRdxxhI75obRk","Pantry Shop #4","3000 W English Rd, High Point, NC 27262, United States",-80.0439009,35.9308671,"convenience","no"
"ChIJS4fHpYBMUogR9jANHMVz068","Food Lion","705 S Main St p, King, NC 27021, United States",-80.360732,36.2622769,"main","yes"
"ChIJ7Uqlg14bU4gRpzRPa2iAF54","Tienda Ilobasco","3008 W Gate City Blvd ste b, Greensboro, NC 27403, United States",-79.8363078,36.0481987,"local","yes"
"ChIJGeDCJtetU4gRL42jQbvLInU","Star Lite Grocery","3009 Glenn Ave NE, Winston-Salem, NC 27105, United States",-80.2403982,36.1287612,"convenience","no"
"ChIJCccPpcH9UogRBGQJ0ruHx4Q","Food Lion","7605 NC-68 Ste C, Oak Ridge, NC 27310, United States",-79.9913879,36.2109633,"main","yes"
"ChIJI1J7Z3SyU4gR87X94EKAF_c","Food Lion","7760 North Point Blvd, Winston-Salem, NC 27106, United States",-80.2827771,36.1526153,"main","yes"
"ChIJGTb6ppt_UYgRxO6JrUw2xOg","Yadkin Valley General Store","302 E Main St, Elkin, NC 28621, United States",-80.8470552,36.2449394,"convenience","no"
"ChIJB9gdsnrCU4gRuMtzdpBI244","Food Lion","796 Valley Rd, Mocksville, NC 27028, United States",-80.5804712,35.9038625,"main","yes"
"ChIJm_SFEyipU4gR0T10Mx5YiCA","Family Dollar","3045 Waughtown St, Winston-Salem, NC 27107, United States",-80.1789909,36.0786979,"dollar","no"
"ChIJ_XpEviKYU4gR0Xo7QC5onoo","Pickett Food Mart","305 Biesecker Rd, Lexington, NC 27295, United States",-80.2669346,35.8448647,"convenience","no"
"ChIJG2ZxS7oPU4gRk5W2YBu5DDQ","Tic Tac Mini Mart","306 N Centennial St UNIT 101, High Point, NC 27262, United States",-80.001867,35.9631552,"convenience","no"
"ChIJbdbY_CMZU4gRej21CiLSPi0","Charlie Grocery","306 S Elm St, Greensboro, NC 27401, United States",-79.7907758,36.0698265,"convenience","no"
"ChIJR_PUczawU4gREPzilepUVGo","Nour Grocery (Arab and Middle Eastern food)","3068 Trenwest Dr #1, Winston-Salem, NC 27103, United States",-80.2975361,36.0798718,"local","yes"
"ChIJUQAAAECGUYgRmQUZWV_ZIA4","Family Dollar","308 E Atkins St, Dobson, NC 27017, United States",-80.7194927,36.395654,"dollar","no"
"ChIJsYfBv00vUogRg2Qzk08NBBw","Dobson Produce","309 Turkey Ford Rd, Dobson, NC 27017, United States",-80.6995882,36.3893813,"specialty","yes"
"ChIJY33CA7mTUogRyt2lZtVhH18","Main Street Market","310 Main St, Ridgeway, VA 24148, United States",-79.86068,36.5833155,"convenience","no"
"ChIJow50ysw5U4gRaimZmx33EnA","Dollar Tree","310 W Swannanoa Ave, Liberty, NC 27298, United States",-79.576279,35.8532918,"dollar","no"
"ChIJybamb_UfU4gR5y87zmGGxcQ","Bessemer Tobacco Shop","3104 E Bessemer Ave, Greensboro, NC 27405, United States",-79.7432443,36.0846985,"convenience","no"
"ChIJA95oXBofU4gRalvtptu5VRE","Save A Lot","3111 Yanceyville St, Greensboro, NC 27405, United States",-79.7771782,36.1148622,"main","yes"
"ChIJNQvqA86tU4gRpRv_fGm1BnU","Mo’s Chicken & Grocery 2 Go","3112 Indiana Ave, Winston-Salem, NC 27105, United States",-80.2429204,36.1312962,"convenience","no"
"ChIJHUh9WQ0fU4gR3axoP_ezlzs","Nie's American Oriental Market","3116 Summit Ave, Greensboro, NC 27405, United States",-79.7630461,36.1168886,"local","yes"
"ChIJk3VAQ3-QUogRkWulHVIXEx0","Community Market","312 Fayette St, Martinsville, VA 24112, United States",-79.8793614,36.6937451,"convenience","no"
"ChIJg9ToL92tU4gR3GgBI1kC0UE","La Bendicion Market","3122 Indiana Ave, Winston-Salem, NC 27105, United States",-80.2431314,36.1316521,"convenience","no"
"ChIJAQcTvSDAUogRkJb8Hq1RdMg","Food Lion","824 S Van Buren Rd E, Eden, NC 27288, United States",-79.7370081,36.4859117,"main","yes"
"ChIJ50KMc-OtU4gRyAyvcsMuJ4A","Family Fare","3130 University Pkwy, Winston-Salem, NC 27105, United States",-80.2629505,36.1305405,"convenience","no"
"ChIJnSyI0E8OU4gRC614wzqbeQ8","Alounemay Oriental Food Store","3136 E M.L.K. Jr Dr #112, High Point, NC 27260, United States",-79.952716,35.962614,"local","yes"
"ChIJMS5IHAGeU4gRefdHtrfWh-g","Food Lion","8275 NC-109, Thomasville, NC 27360, United States",-80.1005651,35.7693095,"main","yes"
"ChIJdSCthX9vVIgRLooB6drfJIw","Food Lion","833 NC-24, Albemarle, NC 28001, United States",-80.1683245,35.3481557,"main","yes"
"ChIJxdW4Qq5pU4gR0WVORtD9Crs","Express Mart","316 S Fayetteville St, Asheboro, NC 27203, United States",-79.8149225,35.7032084,"convenience","no"
"ChIJ0aj5o6o-UogRc_J0KDUn8xg","Moore's General Store","3170 Westfield Rd, Mt Airy, NC 27030, United States",-80.541653,36.4939425,"convenience","no"
"ChIJD_sg-cKvU4gRTOotmTEJNa0","SAM TOBACCO PLUS","3193c Peters Creek Pkwy, Winston-Salem, NC 27127, United States",-80.258132,36.0441751,"convenience","no"
"ChIJPUFHH_SvU4gRjRvz910i3VA","Family Dollar","3195 Peters Creek Pkwy, Winston-Salem, NC 27127, United States",-80.2582243,36.042892,"dollar","no"
"ChIJMX1TTUeYU4gRY1De3_1cQlg","Food Lion","848 Winston Rd, Lexington, NC 27295, United States",-80.2553932,35.8370465,"main","yes"
"ChIJ-8Zzl_-ZUogRTG2YEwr9U7s","Food Lion","8500 A L Philpott Hwy #13, Martinsville, VA 24112, United States",-79.8305497,36.6933756,"main","yes"
"ChIJ9d_49vxLU4gRyGOWYXJIqJ0","Country Mart","320 W Raleigh St #1, Siler City, NC 27344, United States",-79.4664114,35.7219143,"convenience","no"
"ChIJa41r2n0KU4gRLUJx1W0LCRU","Food Lion","902 W Cooksey Dr, Thomasville, NC 27360, United States",-80.0925141,35.8975419,"main","yes"
"ChIJLygGdM97UYgRJNpGKmfKykg","H G Greene Store","3203 Clingman Rd, Ronda, NC 28670, United States",-80.9280749,36.1782032,"convenience","no"
"ChIJOVj1A-ytU4gR0wLkRFtsHjY","La Victoria","321 Polo Rd, Winston-Salem, NC 27105, United States",-80.2609899,36.1426555,"local","yes"
"ChIJ-buYcKAsU4gRHzC_1HqOr1A","Food Lion","921 S Main St, Graham, NC 27253, United States",-79.4000273,36.0518208,"main","yes"
"ChIJqbE2HfSKU4gRxtaovvTNwUw","Food Lion","968 Main St. Hwy, 52, Rockwell, NC 28138, United States",-80.396754,35.5486844,"main","yes"
"ChIJW-dAz6nfU4gRmLngQhP5_UY","Harmony Galaxy","3235 Harmony Hwy, Harmony, NC 28634, United States",-80.7734853,35.9503871,"main","yes"
"ChIJNYjtSp1BU4gR0Pe7uTqvWFk","Quik Chek","324 W Main St, Franklinville, NC 27248, United States",-79.6964034,35.7443249,"convenience","no"
"ChIJye26FQqxU4gR8jNT6QqRfSg","Grace Kayah Asian Market","325 Jonestown Rd, Winston-Salem, NC 27104, United States",-80.3355192,36.0747882,"local","yes"
"ChIJUWBntGFpU4gRZhBrwTZsn68","Carniceria Aguileras","325 Old Liberty Rd, Asheboro, NC 27203, United States",-79.8042182,35.7412023,"local","yes"
"ChIJhQg19EWwU4gRateTWaA5n7A","Greek Village Market","3255 Healy Dr, Winston-Salem, NC 27103, United States",-80.3057479,36.0757308,"convenience","no"
"ChIJEfHrQJqxU4gRIEw-59uzi0c","The Fresh Market","3285 Robinhood Rd, Winston-Salem, NC 27106, United States",-80.3111492,36.1157402,"main","yes"
"ChIJXcLKcGSCU4gReDv3eevEPkk","Lanier's Super Market","33 S Main St, Denton, NC 27239, United States",-80.1128037,35.632923,"main","yes"
"ChIJ2fSLjlQHU4gRx6jSzXt4ZH0","Food Lion","980 S Main St, Kernersville, NC 27284, United States",-80.0967033,36.1102171,"main","yes"
"ChIJPYKG4duwU4gR0nJ-dMN2e1M","Harris Teeter","150 Grant Hill Ln, Winston-Salem, NC 27104, United States",-80.3455487,36.0836581,"main","yes"
"ChIJ2XTr-5sFU4gRyD0nx8ghTtM","Harris Teeter","1589 Skeet Club Rd #140, High Point, NC 27265, United States",-79.96831,36.0328,"main","yes"
"ChIJyYqRhJw8UogRTv5lkgWyj8w","Super C Store","335 E Pine St, Mt Airy, NC 27030, United States",-80.6015759,36.5021332,"convenience","no"
"ChIJQbjbhzc5UogRY49m-xcise4","Dollar General","3350 Cook School Rd, Pilot Mountain, NC 27041, United States",-80.501256,36.406929,"dollar","no"
"ChIJudIDjfkbU4gRm0-AiqQutGc","Midtown Olive Oil","3354 W Friendly Ave #141, Greensboro, NC 27410, United States",-79.83864,36.08879,"specialty","yes"
"ChIJC5F9W38dU4gR_-t7IxTw0-g","Sprouts Farmers Market","3357 Battleground Ave, Greensboro, NC 27410, United States",-79.8457496,36.1229111,"main","yes"
"ChIJTzRuI_UcU4gRbs8jFVpofwo","Harris Teeter","1605 New Garden Rd, Greensboro, NC 27410, United States",-79.8758258,36.1185576,"main","yes"
"ChIJjbdo5KmvU4gRspYk4fmeZBI","Tienda Mexicana Rosy","338 Waughtown St, Winston-Salem, NC 27127, United States",-80.232647,36.0741658,"local","yes"
"ChIJq8NO9W-xUogRplvtQK8dzY0","Virginia Store","3389-3399 Westover Dr, Danville, VA 24541, United States",-79.4812203,36.604723,"convenience","no"
"ChIJReKTy5qxU4gRjNRzpy6OP1I","Harris Teeter","1955 N Peace Haven Rd, Winston-Salem, NC 27106, United States",-80.3106071,36.1177845,"main","yes"
"ChIJge5kbednU4gRVQS7vqW_nkQ","Dollar General","3404 US-220 BUS, Asheboro, NC 27205, United States",-79.8222768,35.6569442,"dollar","no"
"ChIJI8APq88bU4gRJuMtUbZQ98g","Doug Huong Grocery","3410 Spring Garden St, Greensboro, NC 27407, United States",-79.8505514,36.0607979,"specialty","yes"
"ChIJJdKnvOJpU4gRIPqbrIHCxGw","FOOD MART","3445 US-64, Asheboro, NC 27203, United States",-79.7408419,35.7257775,"convenience","no"
"ChIJy0dknlzwUogRkkPBCsHFxHQ","County Line Grocery LLC","3452 US-311, Madison, NC 27025, United States",-80.0293677,36.3554197,"convenience","no"
"ChIJi3h4wCmuU4gRU1QujPhYqRk","Harris Teeter","2281 Cloverdale Ave NW, Winston-Salem, NC 27103, United States",-80.2762102,36.0911061,"main","yes"
"ChIJEaJ136IeU4gR2QnboPKQAVM","Harris Teeter","2639 Lawndale Dr, Greensboro, NC 27408, United States",-79.8209937,36.1033888,"main","yes"
"ChIJn1A4hdAIU4gRqDOvYG1W0Ec","Harris Teeter","265 Eastchester Dr, High Point, NC 27262, United States",-80.0193447,35.9844589,"main","yes"
"ChIJAYVM8kEpU4gR3CFC_kQJplk","Harris Teeter","2727 S Church St, Burlington, NC 27215, United States",-79.4835711,36.0822707,"main","yes"
"ChIJgSh6l1NSUogR58iBV6VIYcE","Andy Food Mart","3514 NC-8, Germanton, NC 27019, United States",-80.230971,36.263058,"convenience","no"
"ChIJjVTc7c-tU4gR7cBxMjhzfHs","Family Dollar","3523a Patterson Ave, Winston-Salem, NC 27105, United States",-80.2402401,36.1353802,"dollar","no"
"ChIJ64dHYPDEUogR3OzlT1s19Ng","Stop & Shop","3531 US-158, Reidsville, NC 27320, United States",-79.6208645,36.3613962,"convenience","no"
"ChIJHw-VNUiyU4gRUE6ZZzUIq8U","Harris Teeter","2835 Reynolda Rd, Winston-Salem, NC 27106, United States",-80.2985304,36.1458252,"main","yes"
"ChIJfQ-m7eBgU4gRsUPnh3Gw-kI","Dollar General","355 N Broad St, Seagrove, NC 27341, United States",-79.7814701,35.5448018,"dollar","no"
"ChIJUbmx7RtTUogRH8DHDFvXtAs","Daily Basket","3561 NC 8 and 65 Hwy, Germanton, NC 27019, United States",-80.2238422,36.4620558,"specialty","yes"
"ChIJm7xXrw-BUYgRWTtBWtIRd-o","Poplar Springs Grocery & Mechanic","3566 Poplar Springs Rd, State Rd, NC 28676, United States",-80.8433794,36.3061157,"convenience","no"
"ChIJ8aQ0WCNpU4gRl0nv2wGK1us","Family Dollar","358 N Fayetteville St, Asheboro, NC 27203, United States",-79.8113326,35.710166,"dollar","no"
"ChIJw9kSAfkbU4gRCbG-lc0X5C4","Harris Teeter","3330 W Friendly Ave, Greensboro, NC 27410, United States",-79.83729,36.0880317,"main","yes"
"ChIJ4fIQilceU4gRzQZ67IVCF6s","Harris Teeter","401 Pisgah Church Rd, Greensboro, NC 27455, United States",-79.7956135,36.1305089,"main","yes"
"ChIJSShgcUyyU4gRPqkSgoULH5k","Dos Hermanos","3625 Reynolda Rd, Winston-Salem, NC 27106, United States",-80.3179274,36.1579797,"convenience","no"
"ChIJldfsBKYdU4gRFYqEYxxYphE","Harris Teeter","4010 Battleground Ave, Greensboro, NC 27410, United States",-79.8666961,36.1475079,"main","yes"
"ChIJJWIbSWAaU4gRSXmTIXzonmk","中国超市 Li Ming's Global Mart","3703 W Gate City Blvd suite a, Greensboro, NC 27407, United States",-79.8512707,36.0390709,"local","yes"
"ChIJjQQzeOYbU4gRAHCYc94jPXI","Supermercado Las Poblanitas","3707 Clifton Rd, Greensboro, NC 27407, United States",-79.8558867,36.0597854,"local","yes"
"ChIJmRFS8T6zU4gRjzqtQieq7Rs","La Victoria","3709 Reynolda Rd, Winston-Salem, NC 27106, United States",-80.3209189,36.1602124,"local","yes"
"ChIJB8bbvjcaU4gRIqnWdmEs6Ko","Mekong Market","3709 W Gate City Blvd, Greensboro, NC 27407, United States",-79.8516511,36.0381698,"local","yes"
"ChIJ5c3NTHFuU4gRkLFuZ87unIQ","ATM (Mountain View Market)","3712 Caraway Mountain Rd, Sophia, NC 27350, United States",-79.8902971,35.7446695,"convenience","no"
"ChIJCR-rnJ0eU4gRcz4_mNyc-5k","The Fresh Market","3712 Lawndale Dr, Greensboro, NC 27455, United States",-79.8283831,36.119372,"main","yes"
"ChIJqYbmbK25U4gR_Lp4ootPFZc","Harris Teeter","4150 Clemmons Rd, Clemmons, NC 27012, United States",-80.4072654,36.0197313,"main","yes"
"ChIJJXobc2sdU4gRXGIYkM_U9JU","Trader Joe's","3721 Battleground Ave, Greensboro, NC 27410, United States",-79.8577703,36.1312909,"main","yes"
"ChIJTxU0hg6sU4gR49_JMucPT3E","Neighborhood Grocery","3729 Northampton Dr, Winston-Salem, NC 27105, United States",-80.1954933,36.1361868,"convenience","no"
"ChIJsbyhONGxU4gRdqBPyuKKCxk","Harris Teeter","420-22 S Stratford Rd, Winston-Salem, NC 27103, United States",-80.2857619,36.0901617,"main","yes"
"ChIJ_5DucEYaU4gRlKNbVwYeOX8","Dong Phuong Oriental Foods","3738 Farmington Dr J, Greensboro, NC 27407, United States",-79.8575618,36.0364063,"local","yes"
"ChIJ4XnFQae9U4gRtauuBNVtc_4","Reedy Creek Food Mart","3778 NC-150, Lexington, NC 27295, United States",-80.322638,35.9004494,"convenience","no"
"ChIJc-3uIrxQU4gRsbI64W9kN-I","Routh's Grocery","3796 Chatham St, Bennett, NC 27208, United States",-79.5440549,35.5650031,"convenience","no"
"ChIJX_1ns4evU4gRVJdA8H5QHVY","Mexican store","3798 Konnoak Dr SW, Winston-Salem, NC 27127, United States",-80.2414979,36.0408909,"local","yes"
"ChIJFzFCfw6sU4gR0wR9wYQgwqM","Adams Market","3800 Northampton Dr, Winston-Salem, NC 27105, United States",-80.1961806,36.1367302,"convenience","no"
"ChIJPYKG4duwU4gRXzDClpq7wko","Harris Teeter","5049 Country Club Rd, Winston-Salem, NC 27104, United States",-80.3465059,36.0830624,"main","yes"
"ChIJvWcn9o8IU4gR2IuoPXkNrSE","Bizzy Bee Grocery","3802 N Main St, High Point, NC 27265, United States",-80.043232,36.0111639,"convenience","no"
"ChIJ85zuFsqwU4gRpguNHC16xJs","Harris Teeter","5365 Robinhood Village Dr, Winston-Salem, NC 27106, United States",-80.3681292,36.1228415,"main","yes"
"ChIJX9GTD0YaU4gRw-th89BKTkY","Gapo International Market","3829 High Point Rd # C, Greensboro, NC 27407, United States",-79.8754438,36.0261059,"local","yes"
"ChIJ5R3RzuGvU4gRDaEdSnWzmk4","Tienda crystal","3900 S Main St, Winston-Salem, NC 27127, United States",-80.2419988,36.0411657,"local","yes"
"ChIJV1d200UaU4gRqtldGt8-LxM","Carniceria El Rey","3927 W Gate City Blvd, Greensboro, NC 27407, United States",-79.8603541,36.035979,"local","yes"
"ChIJA-D7tagdU4gRc5BsQSnzbyo","Family Fare","3931 Battleground Ave, Greensboro, NC 27410, United States",-79.8695618,36.1457149,"convenience","no"
"ChIJbbfK75gaU4gRj76JgTnT33k","Harris Teeter","5710 W Gate City Blvd, Greensboro, NC 27407, United States",-79.8975329,36.0169578,"main","yes"
"ChIJ-1xC2LytU4gRDFbFbRt8Dtc","Stanleyville Grocery","3990 Patterson Ave, Winston-Salem, NC 27105, United States",-80.2513908,36.1568709,"convenience","no"
"ChIJ28IB84_tUogRw2w-N_T77YA","Hundley's Grocery","400 N Henry St, Stoneville, NC 27048, United States",-79.9092783,36.4719479,"convenience","no"
"ChIJoaIukhhpU4gRYRTdiDQ7N_k","C Store","401 E Salisbury St, Asheboro, NC 27203, United States",-79.8063198,35.7070997,"convenience","no"
"ChIJazOs0BUKU4gRXeiHRYdtY3k","Speed Mart","401 Hasty School Rd, Thomasville, NC 27360, United States",-80.0780491,35.921933,"convenience","no"
"ChIJIw_iG2QbU4gR0h9r03kdYXY","Harris Teeter","701 Francis King St, Greensboro, NC 27410, United States",-79.8909977,36.0885764,"main","yes"
"ChIJac9w3UJ7VIgRsoL0zt8zXA8","Harris Teeter","817 N 1st St, Albemarle, NC 28001, United States",-80.1999289,35.3619707,"main","yes"
"ChIJndtqISbTU4gRwfCGjPk_YCQ","IGA Yadkin River Marketplace","403 E Main St, Boonville, NC 27011, United States",-80.700587,36.232596,"local","yes"
"ChIJ-1bP-LG5U4gRrB6LL9YBUQg","Carlton's Tanglewood","4060 Clemmons Rd, Clemmons, NC 27012, United States",-80.4048089,36.0194286,"convenience","no"
"ChIJfxPr-TAcU4gRkHYuvR5QhHE","Southern Foods","407 Westcliff Rd, Greensboro, NC 27409, United States",-79.9731331,36.0874562,"local","yes"
"ChIJy6drvRhpU4gRk-oMo6aSXzU","Quick Pick 7","408 E Salisbury St, Asheboro, NC 27203, United States",-79.8064949,35.7063546,"convenience","no"
"ChIJUxYTnQDzU4gRDIMDKF1-0Wk","Harris Teeter","850 Jake Alexander Blvd W, Salisbury, NC 28144, United States",-80.4970406,35.6680315,"main","yes"
"ChIJ_e66OlQHU4gRh_TtNCa2l04","Harris Teeter","971 S Main St, Kernersville, NC 27284, United States",-80.0948639,36.1071415,"main","yes"
"ChIJvUmTXwevU4gRQhOLpzPl_Rc","Tienda Mexicana Jazmine","410 Waughtown St, Winston-Salem, NC 27127, United States",-80.2321096,36.0740186,"local","yes"
"ChIJnRrBYskKU4gRcIoomebPMww","Lidl","1147 Randolph St, Thomasville, NC 27360, United States",-80.0719142,35.8565368,"main","yes"
"ChIJbwisCqQbU4gRuLlHEvawggU","Dynasty","4103 Spring Garden St # A, Greensboro, NC 27407, United States",-79.867677,36.066353,"local","yes"
"ChIJ_aR6MT2yU4gR4pZIJ5jTWuI","Lidl","2445 Fairlawn Dr, Winston-Salem, NC 27106, United States",-80.2926083,36.1432186,"main","yes"
"ChIJhZuWImyuU4gR7zfZU8U8Ij8","Teddy's Grocery","415 W Northwest Blvd, Winston-Salem, NC 27105, United States",-80.249501,36.1102122,"convenience","no"
"ChIJd-FfaLEpU4gROV7tUIusn0g","Lidl","3010 S Church St, Burlington, NC 27215, United States",-79.4915766,36.0791777,"main","yes"
"ChIJtd-Iqe8OU4gRn_D9WYH2fB8","Family Dollar","417 Brentwood St, High Point, NC 27260, United States",-79.9777556,35.9602572,"dollar","no"
"ChIJfXOPa0OuU4gR5ugGk2wvcgU","Kingz Downtown Market","418 N Liberty St, Winston-Salem, NC 27101, United States",-80.2453313,36.0989719,"convenience","no"
"ChIJ85Brm1ulU4gRpAsLaJ7eqMw","Lidl","3315 Sides Branch Rd, Winston-Salem, NC 27127, United States",-80.2612294,36.0323201,"main","yes"
"ChIJ-4h1A9OHUogRmcEfTPkiDtA","J S Adams Grocery","4201 Stones Dairy Rd, Bassett, VA 24055, United States",-80.027493,36.713296,"local","yes"
"ChIJzb5igQRXUogRysY9BpoqVKo","Whicker's Grocery","4216 North Carolina Hwy 89 E, Walnut Cove, NC 27052, United States",-80.1516023,36.3375342,"convenience","no"
"ChIJnYv2YDRdU4gRSIBZDVTsAcE","Clark's General Store","4222 NC-42, Asheboro, NC 27205, United States",-79.7131471,35.645692,"convenience","no"
"ChIJXT0hUgQbU4gRJKGt-4h6Yjs","Lidl","5696 W Gate City Blvd, Greensboro, NC 27407, United States",-79.8964424,36.0178776,"main","yes"
"ChIJ9fhVoRCxUogR7T6XMrfvZos","Lynn & Mark Grocery","4240 Westover Dr, Danville, VA 24541, United States",-79.5049371,36.6047396,"convenience","no"
"ChIJ5xXH9yJpU4gR9DSeVDDyuyw","LA ESTRELLA MEXICAN STORE","425 b S Fayetteville St, Asheboro, NC 27203, United States",-79.8144668,35.7014603,"convenience","no"
"ChIJS1fjIzmzUogRyPIQ56RcXJ4","Main Market Inc","425 Memorial Dr, Danville, VA 24541, United States",-79.3969707,36.59101,"local","yes"
"ChIJg5NZThYZU4gRhR8YyR93VEU","Just Save","429 W Meadowview Rd, Greensboro, NC 27406, United States",-79.8017445,36.0379094,"local","yes"
"ChIJJ-PMgPaZU4gR6LxjIh3RiwE","Dollar Tree","43 Plaza Pkwy, Lexington, NC 27292, United States",-80.2543479,35.7842815,"dollar","no"
"ChIJs6dLbqc8UogRM4lU2Z54o9s","Lowes Foods","715 W Independence Blvd, Mt Airy, NC 27030, United States",-80.6179483,36.4992621,"main","yes"
"ChIJ8zeOrzsDU4gRXkOzVHUqcCc","Lowes Foods at Cardinal Shopping Center","Cardinal Shopping Center, 6310 Old Oak Ridge Rd G, Greensboro, NC 27410, United States",-79.9339683,36.1278903,"main","yes"
"ChIJGw7HejhvU4gRVyFjgxNwTrM","Dollar General","435 State Hwy 49 S, Asheboro, NC 27205, United States",-79.8434608,35.6814745,"dollar","no"
"ChIJwdEuI0HHU4gR11369IhCY4g","Andy Grocery & Services","4369 US-158, Advance, NC 27006, United States",-80.4737153,35.9877736,"convenience","no"
"ChIJ88BC7rsNU4gRuTmREKA0k5c","Lowes Foods of Archdale","10106 S Main St A, Archdale, NC 27263, United States",-79.9485615,35.8996717,"main","yes"
"ChIJ7zhgJj6VU4gReIS6lKyKtuE","Mason and Charlee's Country Store","4394 S, NC-150, Lexington, NC 27295, United States",-80.3744132,35.8082461,"local","yes"
"ChIJ-_xew06sU4gR149a4oIWE10","Family Dollar","4412 Old Rural Hall Rd, Winston-Salem, NC 27105, United States",-80.2245503,36.1501996,"dollar","no"
"ChIJrbUTRsxoU4gRxqVw6FdGZ0E","Lowes Foods of Asheboro","737 W Dixie Dr, Asheboro, NC 27205, United States",-79.8256473,35.6863398,"main","yes"
"ChIJJfsMkJviUogRS0ouzdZ0TkE","Market Express","4432 US-220, Summerfield, NC 27358, United States",-79.8887881,36.1872188,"convenience","no"
"ChIJE8WLBIK5U4gRD9Gx5J7uR-s","Hampton Road Grocery","4440 Hampton Rd, Clemmons, NC 27012, United States",-80.3716283,36.0062275,"convenience","no"
"ChIJ8Wsaq2ZcUogRuvKJdWZ2kcM","Briggs Grocery","4444 NC-8, Danbury, NC 27016, United States",-80.2265327,36.4831089,"convenience","no"
"ChIJqwQiw9FEU4gR4g1EyBgC9vQ","Quick'n Easy Food Store","4449 NC-22, Siler City, NC 27344, United States",-79.6161481,35.6470736,"convenience","no"
"ChIJvSLGZq48UogR1fxswGZODdk","Dollar General","449 N Andy Griffith Pkwy, Mt Airy, NC 27030, United States",-80.6259707,36.5073898,"dollar","no"
"ChIJf1fC0Ye4U4gRr0u0uibgf_I","Lowes Foods of Bermuda Run","Hwy 801 North, Suite 258, Bermuda Run, NC 27006, United States",-80.4366692,36.0007843,"main","yes"
"ChIJk6lu88QoU4gRIv8Z9bWUai4","Lowes Foods of Burlington","1191 University Dr, Burlington, NC 27215, United States",-79.5293439,36.0776533,"main","yes"
"ChIJPWor3vKzU4gR5SOrz3b16PE","Quality Mart #59","4575 Yadkinville Rd, Pfafftown, NC 27040, United States",-80.3572736,36.1535979,"convenience","no"
"ChIJQf4HxgOoU4gRr5znAQn_TE8","Little Cedar Grocery","4586 High Point Rd, Kernersville, NC 27284, United States",-80.1019146,36.0330802,"convenience","no"
"ChIJcWwi2hUbU4gR1XJprFRbmzw","SUKAI African Market","4604 W Market St #104, Greensboro, NC 27407, United States",-79.8625438,36.0710071,"local","yes"
"ChIJ86D6NJIbU4gRKemAaXO0u2U","AmeriAsian Market","4604 W Market St Suite #112, Greensboro, NC 27407, United States",-79.8625429,36.0710896,"local","yes"
"ChIJo6U7J5KtU4gR4KN9A24YUgI","Lee's Grocery","4609 Cherry St, Winston-Salem, NC 27105, United States",-80.2637458,36.1531009,"convenience","no"
"ChIJAQAAhEUaU4gRQp7kmex3AyI","Family Dollar","4609 High Point Rd, Greensboro, NC 27407, United States",-79.8668274,36.0318115,"dollar","no"
"ChIJeyflfeu5U4gRwDUI4560Hbo","Lowes Foods of Clemmons","2501 Lewisville Clemmons Rd, Clemmons, NC 27012, United States",-80.3803922,36.0299479,"main","yes"
"ChIJuXN9j32CU4gRKj6yoQt1gos","Lowes Foods of Denton","17525 NC-109, Denton, NC 27239, United States",-80.105692,35.6377915,"main","yes"
"ChIJMfzVFzMFU4gRI3hZ16hs_9o","Lowes Foods of Jamestown","1236 Guilford College Rd, Jamestown, NC 27282, United States",-79.9211277,36.0403147,"main","yes"
"ChIJ_yB5uaIbU4gRs-YBkMGGxFU","Dollar Tree","4626 W Market St, Greensboro, NC 27407, United States",-79.8652304,36.0713919,"dollar","no"
"ChIJ3Q9-e60AU4gRXX2cG0YF6GM","Lowes Foods of Kernersville","240 Market View Dr, Kernersville, NC 27284, United States",-80.0872152,36.1140484,"main","yes"
"ChIJf9rSXnKlU4gR0e4GauRHYdU","Las Vigas","4636 S Main St, Winston-Salem, NC 27127, United States",-80.2416067,36.019624,"local","yes"
"ChIJNxYHeAwgU4gRdKTpXwT2wCk","La Quinta Mexican Store","4650 US-29, Greensboro, NC 27405, United States",-79.7210147,36.16118,"convenience","no"
"ChIJRYUF-35MUogRlFav8EW3Pf8","Lowes Foods of King","614-G S Main St, King, NC 27021, United States",-80.3607163,36.2676488,"main","yes"
"ChIJ_5iaKKIbU4gRogC9qO157vM","West Market Family Fare","4700 W Market St, Greensboro, NC 27407, United States",-79.8691134,36.0697779,"convenience","no"
"ChIJSXoq31W2U4gRxt-DWOxeVYE","Lowes Foods of Lewisville","177 Lowes Food Drive, Lewisville, NC 27023, United States",-80.4114825,36.1016,"main","yes"
"ChIJqU-CWADhUogRPvnSQDBqzFI","Lowes Foods of North Church Street","5820F N Church St, Greensboro, NC 27455, United States",-79.78696,36.216895,"main","yes"
"ChIJ9xMfZE8hU4gRvh32NBANnpw","Hicone Stop Convenience store","4710 Hicone Rd, Greensboro, NC 27405, United States",-79.70883,36.1523112,"convenience","no"
"ChIJQ2nEo8gXU4gRo54C4lhQgTg","The Mercantile Exchange","4744 Pleasant Garden Rd, Pleasant Garden, NC 27313, United States",-79.7633587,35.9655655,"specialty","yes"
"ChIJOQQ5ScEbU4gRrlD0TfgBT-A","Brother Gary's Pimento Cheese & Gourmet Dips","4809 W Gate City Blvd, Greensboro, NC 27407, United States",-79.8713637,36.0274704,"specialty","yes"
"ChIJucabPlKsU4gRZQFwJauE-bw","Liberty Street Grocery","4820 Old Rural Hall Rd, Winston-Salem, NC 27105, United States",-80.2275348,36.1570215,"convenience","no"
"ChIJrbPlGRQCU4gRaBINZy7KfN0","Lowes Foods of Oak Ridge","2205 Oak Ridge Rd Suite B, Oak Ridge, NC 27310, United States",-79.9914753,36.1727642,"main","yes"
"ChIJp4LvNlKsU4gRbK215HcuyHw","La Super Latina","4834 Old Rural Hall Rd, Winston-Salem, NC 27105, United States",-80.2278383,36.1577885,"local","yes"
"ChIJTV_RS1KsU4gRDTqF6zeNnBQ","MATA GROCERY # 1","4838 Old Rural Hall Rd, Winston-Salem, NC 27105, United States",-80.2280609,36.1580749,"convenience","no"
"ChIJzZCbgosfU4gR0H9geHgYxss","Family Dollar","4900 Summit Ave, Greensboro, NC 27405, United States",-79.7444127,36.1443829,"dollar","no"
"ChIJSWyn75V2UYgRZChn0FwRGWw","Rock Creek IGA","4913 Elkin Hwy #268, North Wilkesboro, NC 28659, United States",-81.0581225,36.2108839,"local","yes"
"ChIJAavV-wkbU4gRVXSVdK8CgWg","Indu Indian Grocery Store","4925 W Market St Suit 1104, Greensboro, NC 27407, United States",-79.8750687,36.0670394,"local","yes"
"ChIJ-7zw7wkbU4gRhJdkxFFjvKg","Super G Mart","4927 W Market St, Greensboro, NC 27407, United States",-79.8752101,36.0662464,"local","yes"
"ChIJm5fegKF2UYgRj_nkODHEiFQ","Rock Creek Store","4958 Elkin Hwy 268, North Wilkesboro, NC 28659, United States",-81.056878,36.2112164,"convenience","no"
"ChIJHW59Yn4WU4gR5qUeP8J6Ltg","W A Whitt Store","496 NC-62, Pleasant Garden, NC 27313, United States",-79.781925,35.9179767,"convenience","no"
"ChIJT2DmatwOU4gR80VwfYVqoPE","Daniel Brooks Town Store","500 Henley St, High Point, NC 27260, United States",-79.9907433,35.9675629,"convenience","no"
"ChIJE7CRku3xUogRafnVIFt3Jbg","Family Dollar","5000 NC-704, Sandy Ridge, NC 27046, United States",-80.103363,36.496691,"dollar","no"
"ChIJRwZRCvUoU4gRGrUHWp0S-2k","Eagle Food Center","501 Burlington Ave, Gibsonville, NC 27249, United States",-79.5353604,36.1060279,"convenience","no"
"ChIJ02rjT7UrU4gRRE6Dl8yIqG8","Stop & Shop","501 Trollinger St, Burlington, NC 27215, United States",-79.4470635,36.0991426,"convenience","no"
"ChIJSZtldCrDUogR3lbDBVITtJ0","Lowes Foods of Reidsville","1537 Freeway Dr., Reidsville, NC 27320, United States",-79.6948911,36.3380333,"main","yes"
"ChIJv6UviwRmUogRoBZ7qB6v9Zc","Lowes Foods of Stuart","301 S Main St D, Stuart, VA 24171, United States",-80.2683492,36.6337374,"main","yes"
"ChIJpVcsLmfDUogRD_FTi9AxaVY","G Mart","504 Barnes St, Reidsville, NC 27320, United States",-79.6560983,36.3563817,"convenience","no"
"ChIJkdj8q6AZU4gRq86JGmPCcQQ","A1 Grocery","504 Mobile St, Greensboro, NC 27406, United States",-79.801811,36.044325,"convenience","no"
"ChIJ4cL1pv6qU4gR61w6QGfPVOI","Lowes Foods of Walkertown","5180 Reidsville Rd, Walkertown, NC 27051, United States",-80.1368395,36.1629696,"main","yes"
"ChIJYynnP3iyU4gR6mh0rL1rrfU","99 Cents & Food Center","5049 University Pkwy, Winston-Salem, NC 27106, United States",-80.2770839,36.1613704,"local","yes"
"ChIJP2wdcCalU4gRiAW_i9JN174","Dollar Tree","5050 Peters Creek Pkwy, Winston-Salem, NC 27127, United States",-80.2651055,36.0027862,"dollar","no"
"ChIJ3QR6Z-ExUogRXnkqhPKSw_g","Level Cross Country Store","5089 NC-268, Dobson, NC 27017, United States",-80.6285941,36.3441708,"convenience","no"
"ChIJQxTvxgsbU4gRrOmXOXWSEkk","Al Aqsa Meat Market","5103 W Market St E, Greensboro, NC 27409, United States",-79.877959,36.0682467,"local","yes"
"ChIJPc3laJk8UogRnVUrSw666Ms","Dollar General","514 N Renfro St, Mt Airy, NC 27030, United States",-80.6057181,36.5042403,"dollar","no"
"ChIJN7XBf7TRU4gRnT3-u9V6DlI","Lowes Foods of Yadkinville","948 S State St, Yadkinville, NC 27055, United States",-80.6612166,36.1164129,"main","yes"
"ChIJAXYYN4scU4gRRc74e_K35_k","Lowes Foods on New Garden Road","1581 New Garden Rd, Greensboro, NC 27410, United States",-79.8815261,36.1142932,"main","yes"
"ChIJxTi_2EYdU4gRGWJs0L5Ei1Q","ATM (Wilson's Grocery)","5178 Carlson Dairy Rd, Summerfield, NC 27358, United States",-79.9035443,36.1635599,"convenience","no"
"ChIJ-0R-Nl8KU4gRjRu9oyoCSVI","Cielito Lindo","518 National Hwy, Thomasville, NC 27360, United States",-80.0713686,35.8955118,"local","yes"
"ChIJcRay5CWlU4gR1E5F58aPZMo","Lowes Foods on Peters Creek Parkway","5034 Peters Creek Pkwy, Winston-Salem, NC 27127, United States",-80.2644958,36.0021469,"main","yes"
"ChIJ85k_kkqVUogReaJrDSspUak","Dollar General","519 Morgan Rd, Eden, NC 27288, United States",-79.7612788,36.5153449,"dollar","no"
"ChIJDee9l_1LU4gRD8cnZeDfLl8","Campeche Foods","520 W Raleigh St #3730, Siler City, NC 27344, United States",-79.4696414,35.7211653,"local","yes"
"ChIJ49vZ6T2yU4gRpCylNJ9olTk","Lowes Foods on Reynolda Road","2890 Reynolda Rd, Winston-Salem, NC 27106, United States",-80.3006789,36.1419629,"main","yes"
"ChIJM9RmrpuxU4gRl_1fx9xiJpE","Lowes Foods on Robinhood Road","3372 Robinhood Rd, Winston-Salem, NC 27106, United States",-80.314521,36.1150863,"main","yes"
"ChIJzToqkeOYVIgRumzGJFkc4Js","Food King","528 Main St, Biscoe, NC 27209, United States",-79.777222,35.3725206,"local","yes"
"ChIJ2cOKYidpU4gRvx3bOzhj7ls","La Guerrero","528 S Fayetteville St, Asheboro, NC 27203, United States",-79.8152508,35.7005547,"local","yes"
"ChIJ-UhYs6IbU4gRkd6qxQEGN9o","Madina Market","4614 W Market St, Greensboro, NC 27407, United States",-79.8633272,36.0714612,"local","yes"
"ChIJrTaIM18KU4gRCYY7nyMWWqs","Family Dollar","530 National Hwy, Thomasville, NC 27360, United States",-80.0713468,35.8959947,"dollar","no"
"ChIJ02xl9vavU4gRGtGIXn566CQ","Guevara grocery","532 Northwest Blvd, Winston-Salem, NC 27105, United States",-80.2508685,36.1087133,"convenience","no"
"ChIJW1DgRr8LU4gRde6b4kTsp-c","Marcos Dried Peppers","516 National Hwy, Thomasville, NC 27360, United States",-80.0713015,35.8954686,"specialty","yes"
"ChIJgzWsZDxpU4gRAAkD4B797Yk","El Mercado Grocery","537 N Fayetteville St, Asheboro, NC 27203, United States",-79.8122958,35.7141328,"local","yes"
"ChIJoYtoifWyU4gR3hrR7-vXeZw","Tienda Mexicana La Palmera","5395 Shattalon Dr #1936, Winston-Salem, NC 27106, United States",-80.3028072,36.1727223,"local","yes"
"ChIJDYHCEMytU4gRyza3-RBsTMU","El Rincon Latino Corp","540 Akron Dr, Winston-Salem, NC 27105, United States",-80.2369777,36.1391584,"convenience","no"
"ChIJ3Xs-OmcpU4gRLUvCqe2m3TI","Publix Super Market at Church Street Commons","2750 S Church St, Burlington, NC 27215, United States",-79.48557,36.0796511,"main","yes"
"ChIJazDxWV87UogRWTopichkg0E","Mill Creek Gen Store & Deli Restaurant","541 W Pine St Suite 200, Mt Airy, NC 27030, United States",-80.6148759,36.4976141,"specialty","yes"
"ChIJmVlF5KpGU4gR4WH-zHNZmKM","Grocery Store La Michoacana","542 Coleridge Rd, Ramseur, NC 27316, United States",-79.6483904,35.7316103,"local","yes"
"ChIJM458sMoRU4gRarFYeGgME-o","Publix Super Market at Grandover Village","6029 W Gate City Blvd, Greensboro, NC 27407, United States",-79.9061158,35.9999982,"main","yes"
"ChIJmT-zYezzUYgRTgSHme27WuA","Grant's IGA Supermarket","544 E Stuart Dr, Galax, VA 24333, United States",-80.914941,36.673506,"local","yes"
"ChIJqadPb9dDU4gRMSkvj2XwnCM","Ayers Produce","5441 US-64, Franklinville, NC 27248, United States",-79.6847423,35.7288017,"specialty","yes"
"ChIJs0_zFj4ZU4gRRo4xyUjF7sg","Firehouse Grocery","547 S Mendenhall St, Greensboro, NC 27403, United States",-79.8027531,36.0669823,"convenience","no"
"ChIJrUsmCiiuU4gR6pwxDT-Jg30","Publix Super Market at Miller Street","34 Miller St, Winston-Salem, NC 27104, United States",-80.2759455,36.0950182,"main","yes"
"ChIJHZsa7ee5U4gRnuBsuoaYvW8","Publix Super Market at Peace Haven Village","3150 Gammon Ln, Clemmons, NC 27012, United States",-80.3893944,36.040399,"main","yes"
"ChIJL93AyKMWU4gR2xH7cbKd75M","Family Dollar","5501 Randleman Rd, Greensboro, NC 27406, United States",-79.8099755,35.9219583,"dollar","no"
"ChIJRS3Nd9NDU4gRZWz4dOz1rak","Loma Bonita 3","5579 US-64, Ramseur, NC 27316, United States",-79.6819075,35.7297801,"local","yes"
"ChIJ93zkpnwbU4gRa1wt3nhdQyA","Ms Food Mart","5600 W Friendly Ave, Greensboro, NC 27410, United States",-79.88475,36.0895949,"convenience","no"
"ChIJhWI86GKyU4gR06gjUI6GhZE","Flowers Bakery Outlet","5610 Shattalon Dr, Winston-Salem, NC 27105, United States",-80.2894872,36.1689951,"convenience","no"
"ChIJb9F6Q9kIU4gRMtKmjip3AGw","Publix Super Market at Westchester Square","2005 N Main St STE 101, High Point, NC 27262, United States",-80.0247461,35.981304,"main","yes"
"ChIJ78N8NifDUogRSxuWqe5-RhU","Sheetz","1647 Freeway Dr., Reidsville, NC 27320, United States",-79.6935321,36.351609,"convenience","no"
"ChIJ_7R0jMl_UYgRDMC-rnGuyjA","Thruway BP","5652 US-21 BUS, Jonesville, NC 28642, United States",-80.8123228,36.1990106,"convenience","no"
"ChIJ4dSGdPIyrYkRKh6ws6a-8cc","OAK VIEW GROCERY","5659 NC-62, Yanceyville, NC 27379, United States",-79.3462807,36.3307121,"convenience","no"
"ChIJO44jFx2xU4gRZCfluDxsE7o","Target Grocery","1040 Hanes Mall Blvd, Winston-Salem, NC 27103, United States",-80.320092,36.0694343,"main","yes"
"ChIJ8w66dqIaU4gRzWSyfEFdQ9U","Dollar Tree","5710 W Gate City Blvd G, Greensboro, NC 27407, United States",-79.8975329,36.0169578,"dollar","no"
"ChIJr2kjh98bU4gR9Omta-jm0-0","Target Grocery","1212 Bridford Pkwy, Greensboro, NC 27407, United States",-79.9075509,36.0564212,"main","yes"
"ChIJB0tFWhspU4gRnw2bxa4mUyA","Target Grocery","1475 University Dr, Burlington, NC 27215, United States",-79.5194182,36.0662775,"main","yes"
"ChIJS6l4MNDlUogR_ChFrwlsnIA","Moore's Grocery & Auto Parts","5891 NC-65, Reidsville, NC 27320, United States",-79.8453645,36.3141483,"convenience","no"
"ChIJ89PDEJ6yU4gRPBH4Z1wETbw","Super Foods Tienda Latina","5952 University Pkwy suite j, Winston-Salem, NC 27105, United States",-80.2775548,36.187439,"local","yes"
"ChIJwYZiuUqYU4gRifBhCu0HBFw","Conrad & Hinkle Food Market","6 N Main St, Lexington, NC 27292, United States",-80.2534156,35.8245301,"local","yes"
"ChIJQ5voEA4dU4gRAVBxwH-PH5o","Target Grocery","1628 Highwoods Blvd, Greensboro, NC 27410, United States",-79.8760585,36.1139419,"main","yes"
"ChIJcd8P3SsNU4gRCeAosx1xRx8","Route62 MART","600 Liberty Rd, High Point, NC 27263, United States",-79.9600896,35.9179272,"convenience","no"
"ChIJI_rajLkbU4gRgbVZM-ZSb_M","Deep Roots Market","600 N Eugene St, Greensboro, NC 27401, United States",-79.793277,36.079289,"local","yes"
"ChIJ7xmb7_1LU4gR98rjHEItuLI","Piggly Wiggly","600 W Raleigh St #3732, Siler City, NC 27344, United States",-79.469949,35.7196313,"main","yes"
"ChIJFc6W0x8ZU4gR8VXLevDKp_Q","Family Dollar","601 Martin Luther King Jr Dr, Greensboro, NC 27406, United States",-79.7852363,36.0621845,"dollar","no"
"ChIJG5pDRPEEU4gRR3G_QSHBGvo","Euro Deli Mart","602 Hickory Ridge Dr #102, Greensboro, NC 27409, United States",-79.9572146,36.0724474,"local","yes"
"ChIJ_-x9yw0fU4gRSK5qvpPuL9M","Target Grocery","2701 Lawndale Dr, Greensboro, NC 27408, United States",-79.8217953,36.1046102,"main","yes"
"ChIJq_8S5p-yU4gRntrSaVXvtSA","Tienda Mexicana La Fe","6033 University Pkwy, Winston-Salem, NC 27105, United States",-80.2772714,36.1908759,"local","yes"
"ChIJA4ufA-kPU4gROtB3YChqxrA","Dollar Plus Mart, Inc","604 E Grimes Ave, High Point, NC 27260, United States",-79.9971298,35.9494739,"convenience","no"
"ChIJCRM-pvKrU4gRfjALasTg6FQ","Belews Creek Country Grocery","6050 Belews Creek Rd, Walkertown, NC 27051, United States",-80.1166615,36.1959638,"convenience","no"
"ChIJ4VQMbhezU4gRjbiqcvPiVnU","Target Grocery","5420 University Pkwy, Winston-Salem, NC 27105, United States",-80.2793469,36.1680699,"main","yes"
"ChIJ-0f79IscU4gRY4PvgT5Deck","The Fresh Market","1560 Highwoods Blvd, Greensboro, NC 27410, United States",-79.8796457,36.1114737,"main","yes"
"ChIJr1izHuI3UogRYUSDKVd179Q","Country Folks Produce","610 E 52 Bypass, Pilot Mountain, NC 27041, United States",-80.4560106,36.3839553,"specialty","yes"
"ChIJWTPx_AWvU4gR25uL-BNIv7g","Marimar Super Market","612 Waughtown St, Winston-Salem, NC 27107, United States",-80.2263086,36.0698537,"local","yes"
"ChIJbcp3c_zwUogRAxUz5kaN9V0","R & K Food Mart","613 Ayersville Rd, Mayodan, NC 27027, United States",-79.971196,36.397673,"convenience","no"
"ChIJb2blXl47UogRTxaAKcDuLUs","Walmart","2241 Rockford St, Mt Airy, NC 27030, United States",-80.6186422,36.4718464,"main","yes"
"ChIJ5x6bbSuvU4gRKAlABr0EJhk","La Providencia","614 E Sprague St, Winston-Salem, NC 27107, United States",-80.2264238,36.0683149,"local","yes"
"ChIJed1A-azTU4gR910dOXOv-rE","Walmart","Holly St, Boonville, NC 27011, United States",-80.7136025,36.2373008,"main","yes"
"ChIJhXTVlthoU4gRJMBHucbGFXU","Dollar General","615 S Fayetteville St, Asheboro, NC 27203, United States",-79.8144628,35.6995162,"dollar","no"
"ChIJPVxB9zOZU4gRkX_issKD7yM","Walmart Curbside Pickup","1430 Cotton Grove Rd, Lexington, NC 27292, United States",-80.2598121,35.7845037,"main","yes"
"ChIJR8Af1sIAU4gRdp_yDRnotCo","Rio Grande Mini Market","621 N Main St, Kernersville, NC 27284, United States",-80.0649737,36.128633,"local","yes"
"ChIJ7R4Lcll_UYgRKJM5eyhgcPQ","PLEASANT HILL GROCERY","623 Austin Traphill Rd, Elkin, NC 28621, United States",-80.8841499,36.2570288,"convenience","no"
"ChIJxZRGDyCjU4gRtBVmtkwVNxQ","Family Dollar","6265 Winston Road, Welcome, NC 27295, United States",-80.2552888,35.9105305,"dollar","no"
"ChIJPdSeSLIAU4gR7JTvkDTRoHQ","Pop Shoppe","627 E Bodenhamer St, Kernersville, NC 27284, United States",-80.0641789,36.1143029,"convenience","no"
"ChIJuTPn4cpNUogRJHHS3fp3k5k","Carolina Best fresh seafood","629C E King St, King, NC 27021, United States",-80.3425058,36.2788005,"specialty","yes"
"ChIJtUcdyAOtU4gRwCrPnWPIsVI","Walmart Grocery Department","320 E Hanes Mill Rd, Winston-Salem, NC 27105, United States",-80.2744594,36.1925118,"main","yes"
"ChIJCRDNjX3sUogRzvR_l34eHMk","Two Brother's Food Market","6338 NC-770, Stoneville, NC 27048, United States",-79.8364037,36.4762959,"convenience","no"
"ChIJOx3kD7N8VIgR9TpWyFkuXgo","Ingles Markets","636 NC-24 #100, Albemarle, NC 28001, United States",-80.1740796,35.3424158,"main","yes"
"ChIJ71vSRrwNU4gRWnSnGAjD9QE","Walmart Neighborhood Market","10250 S Main St, Archdale, NC 27263, United States",-79.9460262,35.8980255,"main","yes"
"ChIJaaLqnlO2U4gRpszHi9Pyx4I","Lewisville Country Market","6373 Shallowford Rd, Lewisville, NC 27023, United States",-80.4171341,36.0986047,"specialty","yes"
"ChIJBytIwx_AUogRFMe11du431Q","Dollar General","640 S Van Buren Rd Unit P, Eden, NC 27288, United States",-79.739155,36.4924095,"dollar","no"
"ChIJcWB8Ad9gU4gRh6MefSn9qKU","Ready Mart #6","641 Broad St, Seagrove, NC 27341, United States",-79.782346,35.5491075,"convenience","no"
"ChIJgzJ_jUbjUogR7I610u7heiI","Barham Grocery","6412 US-158, Summerfield, NC 27358, United States",-79.9045552,36.2509351,"convenience","no"
"ChIJmYTuEKfmU4gRZw19SIhl9Yo","Jones Steele Store","6420 Chenault Rd, Cleveland, NC 27013, United States",-80.7058914,35.8194906,"convenience","no"
"ChIJd5Vi9d6pU4gRPrdrDgfdsLg","Walmart Neighborhood Market","1035 Beesons Field Dr, Kernersville, NC 27284, United States",-80.1015032,36.0878279,"main","yes"
"ChIJjyVgbVgYU4gRVDcj37wocu8","Walmart Neighborhood Market","1050 Alamance Church Rd, Greensboro, NC 27406, United States",-79.7706003,36.0403208,"main","yes"
"ChIJj3RMyL83UogRz5WsFV9SMm4","Dollar General","650 S Key St, Pilot Mountain, NC 27041, United States",-80.4789282,36.3785617,"dollar","no"
"ChIJh2TXZCsBU4gRFiJnLM6zRlI","MawMaw's Market","652 Gralin St, Kernersville, NC 27284, United States",-80.0604337,36.1186718,"convenience","no"
"ChIJ4WJEMVdrU4gR8toKn_nSX48","Dollar Tree","652 W Academy St, Randleman, NC 27317, United States",-79.8177217,35.8223404,"dollar","no"
"ChIJ35zZXePQUogRaIgMpZIASVA","FOOD MART","6626 NC-87, Gibsonville, NC 27249, United States",-79.5201649,36.2660219,"convenience","no"
"ChIJM7VT5FBHUogRRuRfjqO_AE0","C & J Produce Market","6674 Westfield Rd, Westfield, NC 27053, United States",-80.4474937,36.4762735,"specialty","yes"
"ChIJd1dGqTSwU4gRRljXAzcG4sg","Walmart Neighborhood Market","180 Harvey St, Winston-Salem, NC 27103, United States",-80.2937143,36.0850411,"main","yes"
"ChIJRZa3giTNU4gRL7E1IWBMEQ8","Mata Grocery II","6717 NC-67, Boonville, NC 27011, United States",-80.5984745,36.2231215,"convenience","no"
"ChIJBRfMrRJxU4gRtUl7q4S4IyI","Aj Mart","6746 U.S. Hwy 64 W, Asheboro, NC 27205, United States",-79.9758767,35.7354695,"convenience","no"
"ChIJN5CYn2OCU4gRT4gM-XHqY_I","Dollar General","68 Garner St, Denton, NC 27239, United States",-80.1113639,35.6344536,"dollar","no"
"ChIJq6KLDcGyUogRaIrIz5MQfCY","Walmart Neighborhood Market","211 Nor-Dan Dr Unit 1010, Danville, VA 24540, United States",-79.3994065,36.6273976,"main","yes"
"ChIJB4MhR3SxU4gRIaMc-epAfqE","Majmae Al Haramain - Halal Meat & Grocery","690 Jonestown Rd #150, Winston-Salem, NC 27103, United States",-80.34034,36.06996,"local","yes"
"ChIJdxpqdDcaU4gRChutcC-lxRg","Walmart Neighborhood Market","3605 High Point Rd, Greensboro, NC 27407, United States",-79.8490016,36.0386411,"main","yes"
"ChIJNfdzPnw3U4gRuhzaUa0VMeo","Art's Town & Country","6976 State Hwy 49 N, Liberty, NC 27298, United States",-79.5554488,35.857474,"specialty","yes"
"ChIJp-43eB_AUogRAbLPEpm4_9w","Los Portales","698 Linden Dr # 105, Eden, NC 27288, United States",-79.7371572,36.49018,"local","yes"
"ChIJQUaJRUKzUogRrYs71gpJhPc","Midtown Market Inc","7 Chambers St, Danville, VA 24541, United States",-79.4012996,36.5821176,"local","yes"
"ChIJh-XxpYeXU4gRaqg9kEqcQDA","Dollar Tree","70 US-64, Lexington, NC 27295, United States",-80.2737197,35.833116,"dollar","no"
"ChIJQZK0Tb2TUogRbaYerEHlT3Q","Woody's Supermarket","700 Morehead Ave, Ridgeway, VA 24148, United States",-79.8520161,36.5745137,"convenience","no"
"ChIJs67PDpG5U4gRWW38OjBW6W4","Walmart Neighborhood Market","3633 Clemmons Rd, Clemmons, NC 27012, United States",-80.3800443,36.0208246,"main","yes"
"ChIJ6eewgZ0FU4gRfqnBlNy-fX4","Walmart Neighborhood Market","4102 Precision Way, High Point, NC 27265, United States",-79.9648205,36.0288699,"main","yes"
"ChIJAZymzrbRU4gRDVVvtVRoDF4","FAST PHIL'S # 505","708 S State St, Yadkinville, NC 27055, United States",-80.6605231,36.1217448,"convenience","no"
"ChIJL7wQgK4TU4gRl19nl-gLGSM","Cedar Square Grocery","7081 Cedar Square Rd, Archdale, NC 27263, United States",-79.8685993,35.8858123,"convenience","no"
"ChIJNUXnN_SjU4gRfgsduVTZ7-M","Food Mart","7124 Ridge Rd, Lexington, NC 27295, United States",-80.2056491,35.9458478,"convenience","no"
"ChIJ5dFu0M7qUogRgnjCW1fly_M","Goraya Food Land","713 Church St, Eden, NC 27288, United States",-79.7686813,36.5064138,"local","yes"
"ChIJTdnfEQkPU4gRer8b4N6BS2c","Quick Pick Grocery","714 Greensboro Rd, High Point, NC 27260, United States",-79.9675668,35.9869784,"convenience","no"
"ChIJeYwRPniyU4gR37yjVMeBWoc","Walmart Neighborhood Market","5039 University Pkwy, Winston-Salem, NC 27106, United States",-80.2769069,36.1607888,"main","yes"
"ChIJJ5tEGS0PU4gRPjgPn4z4NDs","Bass Food Mart","716 Eastchester Dr, High Point, NC 27262, United States",-80.0070929,35.9842541,"convenience","no"
"ChIJGZ6xDUIZU4gRL7mOMN78ikk","Greenway Grocery","716 W Market St, Greensboro, NC 27401, United States",-79.7989908,36.0731002,"convenience","no"
"ChIJ9URGovMKU4gRkG83kHmALMQ","S & S Food Mart","717 E Guilford St, Thomasville, NC 27360, United States",-80.0726562,35.8880102,"convenience","no"
"ChIJIaRbahVZUYgR2SqWB9a_P1s","Ingles Markets","722 Sullivan Rd, Statesville, NC 28677, United States",-80.8742727,35.806037,"main","yes"
"ChIJgTKz-jUJU4gR5i8-Il9-vZ4","Terry's Discount Grocery","722 W English Rd, High Point, NC 27262, United States",-80.0138196,35.9555114,"convenience","no"
"ChIJN1xEShlLU4gR3zCEYiWaoz4","Tienda Mi Ranchito","727 Greensboro Ave, Siler City, NC 27344, United States",-79.4663674,35.7305168,"local","yes"
"ChIJ69Mtp33_UogRmlPq4HsrEiM","White's Grocery","7296 NC-65, Belews Creek, NC 27009, United States",-80.0966815,36.2491322,"convenience","no"
"ChIJAQAAABkdUogRttw-LN_YX-k","Hershberger's Country Market","73 Coulson Church Rd, Woodlawn, VA 24381, United States",-80.8228566,36.7204749,"local","yes"
"ChIJxzidNtW2U4gR4qvAU0F0LLo","Walmart Neighborhood Market","5175 Brookberry Park Ave, Winston-Salem, NC 27104, United States",-80.3675179,36.0940596,"main","yes"
"ChIJO2T-RbEuUogRspxRWxu3hfA","Feed Saks General Store","7444 US-601, Dobson, NC 27017, United States",-80.715053,36.3499013,"convenience","no"
"ChIJ42OOXV07UogRaHEjRyN6h-Y","Super Mercado Esmeralda (Red Barn)","746 Worth St, Mt Airy, NC 27030, United States",-80.610666,36.4898359,"local","yes"
"ChIJA_FMFBqxU4gRWkXfE7Q7xeg","Buie's Market","749 Avalon Rd N, Winston-Salem, NC 27104, United States",-80.2844283,36.1113289,"local","yes"
"ChIJbd-lqmQbU4gR9NppFpVOU-U","Walmart Neighborhood Market","5611 W Friendly Ave, Greensboro, NC 27410, United States",-79.8864278,36.087556,"main","yes"
"ChIJxY6Qh2-OUYgRntkoKcBKeS4","Ridgeview Grocery","7656 Glade Valley Rd, Ennice, NC 28623, United States",-80.9599177,36.5101692,"convenience","no"
"ChIJcedLe3OyU4gR5T9rrhIeQ9U","Family Dollar","7758 North Point Blvd, Winston-Salem, NC 27106, United States",-80.282524,36.1525473,"dollar","no"
"ChIJEYCT1FK9U4gRm_x0SXoKm7U","Walmart Neighborhood Market","90 US-64, Lexington, NC 27295, United States",-80.2757748,35.8343174,"main","yes"
"ChIJO5cZmnSyU4gRXFYz3wz7Kns","Family Fare","7765 North Point Blvd, Winston-Salem, NC 27106, United States",-80.2812068,36.1508111,"convenience","no"
"ChIJYYLXXoqtU4gRMWydCm0tp5o","Tienda La Miqueleña","7842 North Point Blvd STE G, Winston-Salem, NC 27106, United States",-80.275118,36.1514761,"local","yes"
"ChIJX9HZrVHpU4gRDv1QNVX9LcU","Dollar General","7846 NC-801 S, Cooleemee, NC 27014, United States",-80.5535239,35.8122058,"dollar","no"
"ChIJKd9Uk_grUogR6B__xw7hCds","GONZALES PRODUCE","7848 NC-268, Dobson, NC 27017, United States",-80.7223553,36.3297208,"specialty","yes"
"ChIJl1YRLC0HU4gRCw0JR_HqyRw","Family Fare","789 NC-66, Kernersville, NC 27284, United States",-80.0622696,36.1093546,"convenience","no"
"ChIJJ4Q3MVdrU4gRfOX67LoW23Q","Walmart Supercenter","1021 High Point St, Randleman, NC 27317, United States",-79.8230209,35.8196538,"main","yes"
"ChIJ6cdMZV1_UYgRO80sEsD9o0c","Elkin Mart","798 NC-268, Elkin, NC 28621, United States",-80.8763732,36.251684,"convenience","no"
"ChIJRRAR3f6pU4gRVJmzDvqXoLY","Walmart Supercenter","1130 S Main St, Kernersville, NC 27284, United States",-80.1032161,36.1105849,"main","yes"
"ChIJp7QJgw8MU4gRvFp3Oi_nT2k","Cross Roads Grocery","800 W Fairfield Rd, High Point, NC 27263, United States",-80.0004955,35.9210319,"convenience","no"
"ChIJk6bil078UogR1bHT21lbQSI","Country Side Market LLC","8001 NC-68, Stokesdale, NC 27357, United States",-79.9793724,36.2378598,"convenience","no"
"ChIJjx8bxs6ZU4gRctUwhTiGOgE","Chisolm Curb Mart LLC","801 S Main St, Lexington, NC 27292, United States",-80.260685,35.8169037,"specialty","yes"
"ChIJzWTZgn0KU4gRfKDQnYDJ3CA","One Stop Food Store","801 Salem St, Thomasville, NC 27360, United States",-80.0899394,35.8970332,"convenience","no"
"ChIJGcc_4D3DUogRuo86gcL7WYA","Ckm Grocery","801 W Harrison St, Reidsville, NC 27320, United States",-79.6783413,36.354916,"convenience","no"
"ChIJXU0CCX1WUogRlnvzEVddls0","Ingles Market","802 S Main St, Walnut Cove, NC 27052, United States",-80.1440359,36.2807358,"main","yes"
"ChIJO65kwwwZU4gRNWoCCrzC8yA","Florida Grocery","803 W Florida St, Greensboro, NC 27406, United States",-79.8053038,36.051754,"convenience","no"
"ChIJDawR4HigU4gRhvbM8inehYI","Kings Food Mart","805 Martin Luther King Jr Dr # A, Thomasville, NC 27360, United States",-80.100924,35.890516,"convenience","no"
"ChIJ69mWJR9IUogR6xLQu7rCyiU","Low Price Mart","807 E 52 Bypass, Pilot Mountain, NC 27041, United States",-80.4503183,36.3805637,"convenience","no"
"ChIJnac5lR4rU4gRaUQxGTI6u04","Carlie C's IGA","807 S Main St, Graham, NC 27253, United States",-79.4005265,36.068898,"local","yes"
"ChIJscqRfLcbU4gREM2A7fz3GHk","American Grocery Store","810 Merritt Dr, Greensboro, NC 27407, United States",-79.8557794,36.0594885,"convenience","no"
"ChIJ06cnbrcmUogRZo5yOORWwa0","Cupboard","815 Old U.S. 601, Mt Airy, NC 27030, United States",-80.6327566,36.4491874,"convenience","no"
"ChIJs8u5shqvU4gRawfL86DK1fo","Laperlita","815 Waughtown St, Winston-Salem, NC 27107, United States",-80.2209338,36.0697158,"local","yes"
"ChIJJcBDL-iZU4gRrm1oMflywh8","Pure","817 Cotton Grove Rd, Lexington, NC 27292, United States",-80.2635377,35.8022983,"convenience","no"
"ChIJ-4ooPN8ZU4gR8EDM5xLHu2Q","Walmart Supercenter","121 W Elmsley Dr, Greensboro, NC 27406, United States",-79.7990364,36.0020694,"main","yes"
"ChIJ1-6dNfxoU4gRLQJNCiK-PFA","Walmart Supercenter","1226 E Dixie Dr, Asheboro, NC 27203, United States",-79.7895104,35.6924204,"main","yes"
"ChIJH4kTJMwKU4gRp9fSWVlbYZU","Walmart Supercenter","1585 Liberty Dr Ste 1, Thomasville, NC 27360, United States",-80.0654119,35.8557564,"main","yes"
"ChIJ_95QGxCvU4gR9C2djCGG9x8","La Tili Supermarket","827 E Sprague St, Winston-Salem, NC 27107, United States",-80.2204943,36.0683309,"local","yes"
"ChIJt1rEgO6ZU4gRJqjvj75Z1q0","Walmart Supercenter","160 Lowes Blvd, Lexington, NC 27292, United States",-80.2596452,35.7946037,"main","yes"
"ChIJCSeLNdXpUogRT5C5VNYYepU","Family Dollar","8293 NC-87, Reidsville, NC 27320, United States",-79.7413457,36.383759,"dollar","no"
"ChIJIzKVNZn2UYgRci9_VC-ezRI","GLADEVILLE GROCERY","8308 Carrollton Pike, Galax, VA 24333, United States",-80.8732346,36.6950493,"convenience","no"
"ChIJFZDlYJXDUogRkt8ULTa_ccs","Walmart Supercenter","1624 NC-14, Reidsville, NC 27320, United States",-79.667226,36.383482,"main","yes"
"ChIJm6DxjtTpUogRppgqdTwLM-Y","Fast Times","8408 NC-87, Reidsville, NC 27320, United States",-79.7446536,36.3855308,"convenience","no"
"ChIJQb2XGkKvU4gRrci0sogM7KA","Winston Food Mart","844 E Sprague St, Winston-Salem, NC 27107, United States",-80.2197791,36.0676227,"convenience","no"
"ChIJdWjX_H9MUogRuh10cZR3D78","Walmart Supercenter","204 Ingram Dr, King, NC 27021, United States",-80.3650037,36.2658191,"main","yes"
"ChIJ3cRMWWkfU4gRnHBN5xe8cBw","Walmart Supercenter","2107 Pyramids Village Blvd, Greensboro, NC 27405, United States",-79.75709,36.1095059,"main","yes"
"ChIJfZPEmVfCU4gRURCJRCM4BKY","Walmart Supercenter","261 Cooper Creek Dr, Mocksville, NC 27028, United States",-80.5874127,35.9276941,"main","yes"
"ChIJ4_L2Dl6OUogRbdHqSWXkDac","J & H Market","870 Preston Rd, Martinsville, VA 24112, United States",-79.9587456,36.6381983,"convenience","no"
"ChIJJVOYHGicUYgRNM0XJOsvtxs","Traphill BP & Grocery","8725 Traphill Rd, Traphill, NC 28685, United States",-81.0434223,36.3384506,"convenience","no"
"ChIJC9DufNeLUYgRDVly5LsXC_E","Lowgap Grocery & Grill","8773 W Pine St, Lowgap, NC 27024, United States",-80.8651616,36.5210559,"convenience","no"
"ChIJ0x0Fo8uvU4gRKHA2qNdMX9Q","Asia Grocery Store","880 Peters Creek Pkwy B, Winston-Salem, NC 27103, United States",-80.2590234,36.0785535,"local","yes"
"ChIJH71E7NmLUYgROyKEwdfgZSM","Family Dollar","8823 W Pine St, Lowgap, NC 27024, United States",-80.866911,36.52241,"dollar","no"
"ChIJoQ8hcFf8UogRyxEg_lEA92A","Bi Rite Galaxy LLC","8900 Ellisboro Rd, Stokesdale, NC 27357, United States",-79.9870407,36.2459111,"local","yes"
"ChIJLwPMcR8MU4gRLYAMeMtPgrg","Walmart Supercenter","2628 S Main St, High Point, NC 27263, United States",-79.9890155,35.9252181,"main","yes"
"ChIJq5z71k0JU4gRubqW_xYHjpU","Green Market","900 W Green Dr, High Point, NC 27260, United States",-80.0141712,35.946133,"convenience","no"
"ChIJYyWXNYi_UogR9P7Cpx_Lz6U","Eden Store","902 E Stadium Dr, Eden, NC 27288, United States",-79.7088958,36.5099934,"convenience","no"
"ChIJI_nNkcEIU4gRvtKjjEOxb4E","Walmart Supercenter","2710 N Main St, High Point, NC 27265, United States",-80.0285161,35.9942346,"main","yes"
"ChIJU-QV4E-VUogRV8cbc4KvRRo","J-Mart Inc","904 Virginia St, Eden, NC 27288, United States",-79.7512471,36.5218741,"convenience","no"
"ChIJG6pK_MAKU4gRP0Zp3w_zWzI","Family Dollar","905 Randolph St, Thomasville, NC 27360, United States",-80.07318,35.870178,"dollar","no"
"ChIJF-RP2ezwUogRHIENK4neYLE","Food Plus","907 W Academy St, Madison, NC 27025, United States",-79.9783892,36.382798,"convenience","no"
"ChIJv_0kZ_AKU4gRFE08loy0dcI","Liberty Food Mart","910A Trinity St, Thomasville, NC 27360, United States",-80.0659249,35.885922,"convenience","no"
"ChIJYfiqNUsfU4gRxXfi732qKhQ","Gold Coast international market","911 B N Raleigh St, Greensboro, NC 27405, United States",-79.7583306,36.0842959,"local","yes"
"ChIJSTlyzD4PU4gRVtodpHFxwO8","La Plazita Mexican Grocery","912 E Green Dr, High Point, NC 27260, United States",-79.9944024,35.9535268,"local","yes"
"ChIJLzLiAVGBUYgR_UYkAmsg7B0","Don Moody Grocery","912 Old Hwy 21, State Rd, NC 28676, United States",-80.8908061,36.3396055,"convenience","no"
"ChIJq0i1faDRU4gRzXQMtI0tUg0","Williams & Gentry Grocery","913 W Main St, Yadkinville, NC 27055, United States",-80.6769271,36.135167,"convenience","no"
"ChIJYVb7U-YYU4gR0tLzU-mbJUE","Paul's Grocery","920 Benjamin Benson St, Greensboro, NC 27406, United States",-79.776149,36.0613419,"convenience","no"
"ChIJ4Y5ZHiLAUogR2gwS5syX45o","Walmart Supercenter","304 E Arbor Ln, Eden, NC 27288, United States",-79.7345982,36.4875842,"main","yes"
"ChIJH90vrDApU4gR1V93g5yps6g","Walmart Supercenter","3141 Garden Rd, Burlington, NC 27215, United States",-79.4990363,36.0722111,"main","yes"
"ChIJt79wuOrqUogRQ-JZUXZGfko","Family Dollar","924 Washington St, Eden, NC 27288, United States",-79.7688127,36.4870719,"dollar","no"
"ChIJP1EuCM-ZU4gRH-5MHnQdg5M","Family Dollar","927 S Main St, Lexington, NC 27292, United States",-80.2624054,35.8152077,"dollar","no"
"ChIJWdLprtIYU4gR7RKh2JbpO-s","Asian And African Market","932 E Bessemer Ave, Greensboro, NC 27405, United States",-79.774096,36.0847623,"local","yes"
"ChIJuWXiIqo8UogReMPW6D_BEIg","Los Amigos Carniceria & Taqueria","936 W Pine St, Mt Airy, NC 27030",-80.6276185,36.5006537,"local","yes"
"ChIJybyJMunqUogR_OQfswirDhM","Family Mart of Eden inc","936 Washington St, Eden, NC 27288, United States",-79.7699734,36.487193,"convenience","no"
"ChIJC73Xvy0JU4gRm7uSutzE9ms","Family Dollar","944 N Main St, High Point, NC 27262, United States",-80.0127358,35.9669681,"dollar","no"
"ChIJscbI4USlU4gRtmczCBWjedQ","Walmart Supercenter","3475 Pkwy Village Ct, Winston-Salem, NC 27127, United States",-80.2626318,36.0273864,"main","yes"
"ChIJKR2Py0scU4gRvcrvakNL4Tc","Walmart Supercenter","3738 Battleground Ave, Greensboro, NC 27410, United States",-79.8554675,36.1353897,"main","yes"
"ChIJrYm3xAX0UYgR5F67inGfTBo","Food City","955-A E Stuart Dr, Galax, VA 24333, United States",-80.895673,36.677913,"main","yes"
"ChIJf01LPlvJUogR6Ey_AIy6Nn0","Harvest ridge store","9556 us Highway 29 business, Ruffin, NC 27326, United States",-79.5590597,36.4490337,"convenience","no"
"ChIJ9eWhj9HpU4gRrOMX6tKfz1Y","ANA'S GROCERY","959 Salisbury Rd, Mocksville, NC 27028, United States",-80.5590139,35.8778026,"local","yes"
"ChIJ2-mAcSEbU4gRGakTz6YUA5I","Walmart Supercenter","4424 W Wendover Ave, Greensboro, NC 27407, United States",-79.9009157,36.0578874,"main","yes"
"ChIJad3FSpOwU4gRrWgKw2hK3q0","Walmart Supercenter","4550 Kester Mill Rd, Winston-Salem, NC 27103, United States",-80.3375799,36.0672461,"main","yes"
"ChIJx3KPxz-DUYgRtWweKdhLvS8","Rex Triplett Grocery","979 Roaring Gap Church Rd, Elkin, NC 28621, United States",-80.9661682,36.3305498,"convenience","no"
"ChIJWQlVhxWAUYgRxdJ_eVAnzNs","Walmart Supercenter","548 CC Camp Rd, Elkin, NC 28621, United States",-80.8325888,36.2759486,"main","yes"
"ChIJ47RBmGPQUogR2sUVTj1om-4","Ross Grocery & Hardware","983 NC-87, Reidsville, NC 27320, United States",-79.556261,36.2844529,"convenience","no"
"ChIJfYoT8s-ZU4gRGHZFLtShxVk","El Progreso","991 S Main St, Lexington, NC 27292, United States",-80.264474,35.8137088,"local","yes"
"ChIJA4DjCj3iUogRbcfCOlxfw1w","ATM","992 NC-150, Greensboro, NC 27455, United States",-79.8429357,36.200606,"convenience","no"
"ChIJZbj2IcLxUogRiAfV8phqZ2c","Walmart Supercenter","6711 NC-135, Mayodan, NC 27027, United States",-79.9357095,36.4201136,"main","yes"
"ChIJh3DixKMbU4gR-MH1r6r3LI0","EL AZTECA GROCERIES","4131 Spring Garden St Ste D, Greensboro, NC 27407",-79.8684559,36.0681503,"local","yes"
"ChIJs0I3o_4bU4gR1dVV3TNHCBY","Whole Foods Market","3202 W Friendly Ave, Greensboro, NC 27408, United States",-79.8341387,36.0857454,"main","yes"
"ChIJHbG03ieuU4gR1IDN4x-wlIs","Whole Foods Market","41 Miller St, Winston-Salem, NC 27104, United States",-80.2736846,36.0941809,"main","yes"
"ChIJk7o_pD6dU4gRoEJovjh0l5w","Daller general","Lexington, NC 27292, United States",-80.2533838,35.8240265,"dollar","no"
"ChIJN5AsNODxUogRMj7ajk4S2j8","Citgo","Madison, NC 27025, United States",-79.959485,36.385415,"convenience","no"
"ChIJO3wq_wfCU4gRnSuDcWPeadU","C and E Produce","Mocksville, NC 27028, United States",-80.5614494,35.8940263,"specialty","yes"
"ChIJHxPKnEwfU4gRLgS1mcWjIHY","Tienda Hispana La Plazita","N English St, Greensboro, NC 27405, United States",-79.7566525,36.0870221,"convenience","no"
"ChIJL4_5JeiZU4gRYQXz4usWVxA","Parker Mart","Patterson St, Lexington, NC 27292, United States",-80.2639052,35.8024117,"convenience","no"
"ChIJM-9U9fWyU4gRCf_emGHlzso","Shattalon Discount","Winston-Salem, NC 27106, United States",-80.3324514,36.1426113,"convenience","no"
"ChIJuSuu2Y3OU4gRxcVVIjrFJiU","Brad's Blueberries","Yadkinville, NC 27055, United States",-80.6595079,36.1345807,"specialty","yes"
